[
  {
    "city_code": "110100",
    "city_name": "北京市",
    "name_en": "Beijing",
    "letter": "B",
    "province_code": "110100",
    "province_name": "北京市",
    "lon": "116.395645",
    "lat": "39.929985",
    "province_id": 1,
    "city_id": 1,
    "type": 2
  },
  {
    "city_code": "120100",
    "city_name": "天津市",
    "name_en": "Tianjin",
    "letter": "T",
    "province_code": "120100",
    "province_name": "天津市",
    "lon": "117.210813",
    "lat": "39.143929",
    "province_id": 2,
    "city_id": 2,
    "type": 2
  },
  {
    "city_code": "130100",
    "city_name": "石家庄市",
    "name_en": "Shijiazhuang",
    "letter": "S",
    "province_code": "130000",
    "province_name": "河北省",
    "lon": "114.522081",
    "lat": "38.048958",
    "province_id": 3,
    "city_id": 3,
    "type": 2
  },
  {
    "city_code": "130200",
    "city_name": "唐山市",
    "name_en": "Tangshan Shi",
    "letter": "T",
    "province_code": "130000",
    "province_name": "河北省",
    "lon": "118.183450",
    "lat": "39.650530",
    "province_id": 3,
    "city_id": 4,
    "type": 2
  },
  {
    "city_code": "130300",
    "city_name": "秦皇岛市",
    "name_en": "Qinhuangdao Shi",
    "letter": "Q",
    "province_code": "130000",
    "province_name": "河北省",
    "lon": "119.604367",
    "lat": "39.945461",
    "province_id": 3,
    "city_id": 5,
    "type": 2
  },
  {
    "city_code": "130400",
    "city_name": "邯郸市",
    "name_en": "Handan Shi",
    "letter": "H",
    "province_code": "130000",
    "province_name": "河北省",
    "lon": "114.482693",
    "lat": "36.609307",
    "province_id": 3,
    "city_id": 6,
    "type": 2
  },
  {
    "city_code": "130500",
    "city_name": "邢台市",
    "name_en": "Xingtai Shi",
    "letter": "X",
    "province_code": "130000",
    "province_name": "河北省",
    "lon": "114.520486",
    "lat": "37.069531",
    "province_id": 3,
    "city_id": 7,
    "type": 2
  },
  {
    "city_code": "130600",
    "city_name": "保定市",
    "name_en": "Baoding Shi",
    "letter": "B",
    "province_code": "130000",
    "province_name": "河北省",
    "lon": "115.494810",
    "lat": "38.886564",
    "province_id": 3,
    "city_id": 8,
    "type": 2
  },
  {
    "city_code": "130700",
    "city_name": "张家口市",
    "name_en": "Zhangjiakou Shi ",
    "letter": "Z",
    "province_code": "130000",
    "province_name": "河北省",
    "lon": "114.893781",
    "lat": "40.811188",
    "province_id": 3,
    "city_id": 9,
    "type": 2
  },
  {
    "city_code": "130800",
    "city_name": "承德市",
    "name_en": "Chengde Shi",
    "letter": "C",
    "province_code": "130000",
    "province_name": "河北省",
    "lon": "117.933822",
    "lat": "40.992521",
    "province_id": 3,
    "city_id": 10,
    "type": 2
  },
  {
    "city_code": "130900",
    "city_name": "沧州市",
    "name_en": "Cangzhou Shi",
    "letter": "C",
    "province_code": "130000",
    "province_name": "河北省",
    "lon": "116.863806",
    "lat": "38.297615",
    "province_id": 3,
    "city_id": 11,
    "type": 2
  },
  {
    "city_code": "131000",
    "city_name": "廊坊市",
    "name_en": "Langfang Shi",
    "letter": "L",
    "province_code": "130000",
    "province_name": "河北省",
    "lon": "116.703602",
    "lat": "39.518610",
    "province_id": 3,
    "city_id": 12,
    "type": 2
  },
  {
    "city_code": "131100",
    "city_name": "衡水市",
    "name_en": "Hengshui Shi ",
    "letter": "H",
    "province_code": "130000",
    "province_name": "河北省",
    "lon": "115.686228",
    "lat": "37.746929",
    "province_id": 3,
    "city_id": 13,
    "type": 2
  },
  {
    "city_code": "139001",
    "city_name": "定州市",
    "name_en": "Dingzhou Shi ",
    "letter": "D",
    "province_code": "130000",
    "province_name": "河北省",
    "lon": "114.982548",
    "lat": "38.515915",
    "province_id": 3,
    "city_id": 14,
    "type": 3
  },
  {
    "city_code": "139002",
    "city_name": "辛集市",
    "name_en": "Xinji Shi ",
    "letter": "X",
    "province_code": "130000",
    "province_name": "河北省",
    "lon": "115.215175",
    "lat": "37.938394",
    "province_id": 3,
    "city_id": 15,
    "type": 3
  },
  {
    "city_code": "140100",
    "city_name": "太原市",
    "name_en": "Taiyuan Shi",
    "letter": "T",
    "province_code": "140000",
    "province_name": "山西省",
    "lon": "112.550863",
    "lat": "37.890277",
    "province_id": 4,
    "city_id": 16,
    "type": 2
  },
  {
    "city_code": "140200",
    "city_name": "大同市",
    "name_en": "Datong Shi ",
    "letter": "D",
    "province_code": "140000",
    "province_name": "山西省",
    "lon": "113.290508",
    "lat": "40.113744",
    "province_id": 4,
    "city_id": 17,
    "type": 2
  },
  {
    "city_code": "140300",
    "city_name": "阳泉市",
    "name_en": "Yangquan Shi",
    "letter": "Y",
    "province_code": "140000",
    "province_name": "山西省",
    "lon": "113.569237",
    "lat": "37.869529",
    "province_id": 4,
    "city_id": 18,
    "type": 2
  },
  {
    "city_code": "140400",
    "city_name": "长治市",
    "name_en": "Changzhi Shi",
    "letter": "C",
    "province_code": "140000",
    "province_name": "山西省",
    "lon": "113.120292",
    "lat": "36.201664",
    "province_id": 4,
    "city_id": 19,
    "type": 2
  },
  {
    "city_code": "140500",
    "city_name": "晋城市",
    "name_en": "Jincheng Shi ",
    "letter": "J",
    "province_code": "140000",
    "province_name": "山西省",
    "lon": "112.867332",
    "lat": "35.499834",
    "province_id": 4,
    "city_id": 20,
    "type": 2
  },
  {
    "city_code": "140600",
    "city_name": "朔州市",
    "name_en": "Shuozhou Shi ",
    "letter": "S",
    "province_code": "140000",
    "province_name": "山西省",
    "lon": "112.479927",
    "lat": "39.337671",
    "province_id": 4,
    "city_id": 21,
    "type": 2
  },
  {
    "city_code": "140700",
    "city_name": "晋中市",
    "name_en": "Jinzhong Shi",
    "letter": "J",
    "province_code": "140000",
    "province_name": "山西省",
    "lon": "112.738514",
    "lat": "37.693361",
    "province_id": 4,
    "city_id": 22,
    "type": 2
  },
  {
    "city_code": "140800",
    "city_name": "运城市",
    "name_en": "Yuncheng Shi",
    "letter": "Y",
    "province_code": "140000",
    "province_name": "山西省",
    "lon": "111.006853",
    "lat": "35.038859",
    "province_id": 4,
    "city_id": 23,
    "type": 2
  },
  {
    "city_code": "140900",
    "city_name": "忻州市",
    "name_en": "Xinzhou Shi",
    "letter": "X",
    "province_code": "140000",
    "province_name": "山西省",
    "lon": "112.727938",
    "lat": "38.461030",
    "province_id": 4,
    "city_id": 24,
    "type": 2
  },
  {
    "city_code": "141000",
    "city_name": "临汾市",
    "name_en": "Linfen Shi",
    "letter": "L",
    "province_code": "140000",
    "province_name": "山西省",
    "lon": "111.538787",
    "lat": "36.099745",
    "province_id": 4,
    "city_id": 25,
    "type": 2
  },
  {
    "city_code": "141100",
    "city_name": "吕梁市",
    "name_en": "Lvliang Shi",
    "letter": "L",
    "province_code": "140000",
    "province_name": "山西省",
    "lon": "111.143156",
    "lat": "37.527316",
    "province_id": 4,
    "city_id": 26,
    "type": 2
  },
  {
    "city_code": "150100",
    "city_name": "呼和浩特市",
    "name_en": "Hohhot Shi",
    "letter": "H",
    "province_code": "150000",
    "province_name": "内蒙古自治区",
    "lon": "111.660350",
    "lat": "40.828318",
    "province_id": 5,
    "city_id": 27,
    "type": 2
  },
  {
    "city_code": "150200",
    "city_name": "包头市",
    "name_en": "Baotou Shi ",
    "letter": "B",
    "province_code": "150000",
    "province_name": "内蒙古自治区",
    "lon": "109.846238",
    "lat": "40.647119",
    "province_id": 5,
    "city_id": 28,
    "type": 2
  },
  {
    "city_code": "150300",
    "city_name": "乌海市",
    "name_en": "Wuhai Shi",
    "letter": "W",
    "province_code": "150000",
    "province_name": "内蒙古自治区",
    "lon": "106.831999",
    "lat": "39.683177",
    "province_id": 5,
    "city_id": 29,
    "type": 2
  },
  {
    "city_code": "150400",
    "city_name": "赤峰市",
    "name_en": "Chifeng (Ulanhad)Shi",
    "letter": "C",
    "province_code": "150000",
    "province_name": "内蒙古自治区",
    "lon": "118.930761",
    "lat": "42.297112",
    "province_id": 5,
    "city_id": 30,
    "type": 2
  },
  {
    "city_code": "150500",
    "city_name": "通辽市",
    "name_en": "Tongliao Shi",
    "letter": "T",
    "province_code": "150000",
    "province_name": "内蒙古自治区",
    "lon": "122.260363",
    "lat": "43.633756",
    "province_id": 5,
    "city_id": 31,
    "type": 2
  },
  {
    "city_code": "150600",
    "city_name": "鄂尔多斯市",
    "name_en": "Eerduosi Shi",
    "letter": "E",
    "province_code": "150000",
    "province_name": "内蒙古自治区",
    "lon": "109.993706",
    "lat": "39.816489",
    "province_id": 5,
    "city_id": 32,
    "type": 2
  },
  {
    "city_code": "150700",
    "city_name": "呼伦贝尔市",
    "name_en": "Hulunbeier Shi ",
    "letter": "H",
    "province_code": "150000",
    "province_name": "内蒙古自治区",
    "lon": "119.760821",
    "lat": "49.201636",
    "province_id": 5,
    "city_id": 33,
    "type": 2
  },
  {
    "city_code": "150800",
    "city_name": "巴彦淖尔市",
    "name_en": "Bayannaoer Shi",
    "letter": "B",
    "province_code": "150000",
    "province_name": "内蒙古自治区",
    "lon": "107.423806",
    "lat": "40.769179",
    "province_id": 5,
    "city_id": 34,
    "type": 2
  },
  {
    "city_code": "150900",
    "city_name": "乌兰察布市",
    "name_en": "Wulanchabu Shi",
    "letter": "W",
    "province_code": "150000",
    "province_name": "内蒙古自治区",
    "lon": "113.112846",
    "lat": "41.022362",
    "province_id": 5,
    "city_id": 35,
    "type": 2
  },
  {
    "city_code": "152200",
    "city_name": "兴安盟",
    "name_en": "Hinggan Meng",
    "letter": "X",
    "province_code": "150000",
    "province_name": "内蒙古自治区",
    "lon": "122.048166",
    "lat": "46.083757",
    "province_id": 5,
    "city_id": 36,
    "type": 2
  },
  {
    "city_code": "152500",
    "city_name": "锡林郭勒盟",
    "name_en": "Xilin Gol Meng",
    "letter": "X",
    "province_code": "150000",
    "province_name": "内蒙古自治区",
    "lon": "116.027339",
    "lat": "43.939704",
    "province_id": 5,
    "city_id": 37,
    "type": 2
  },
  {
    "city_code": "152900",
    "city_name": "阿拉善盟",
    "name_en": "Alxa Meng",
    "letter": "A",
    "province_code": "150000",
    "province_name": "内蒙古自治区",
    "lon": "105.695682",
    "lat": "38.843075",
    "province_id": 5,
    "city_id": 38,
    "type": 2
  },
  {
    "city_code": "210100",
    "city_name": "沈阳市",
    "name_en": "Shenyang Shi",
    "letter": "S",
    "province_code": "210000",
    "province_name": "辽宁省",
    "lon": "123.432790",
    "lat": "41.808644",
    "province_id": 6,
    "city_id": 39,
    "type": 2
  },
  {
    "city_code": "210200",
    "city_name": "大连市",
    "name_en": "Dalian Shi",
    "letter": "D",
    "province_code": "210000",
    "province_name": "辽宁省",
    "lon": "121.593477",
    "lat": "38.948709",
    "province_id": 6,
    "city_id": 40,
    "type": 2
  },
  {
    "city_code": "210300",
    "city_name": "鞍山市",
    "name_en": "AnShan Shi",
    "letter": "A",
    "province_code": "210000",
    "province_name": "辽宁省",
    "lon": "123.007763",
    "lat": "41.118743",
    "province_id": 6,
    "city_id": 41,
    "type": 2
  },
  {
    "city_code": "210400",
    "city_name": "抚顺市",
    "name_en": "Fushun Shi",
    "letter": "F",
    "province_code": "210000",
    "province_name": "辽宁省",
    "lon": "123.929819",
    "lat": "41.877303",
    "province_id": 6,
    "city_id": 42,
    "type": 2
  },
  {
    "city_code": "210500",
    "city_name": "本溪市",
    "name_en": "Benxi Shi",
    "letter": "B",
    "province_code": "210000",
    "province_name": "辽宁省",
    "lon": "123.778062",
    "lat": "41.325837",
    "province_id": 6,
    "city_id": 43,
    "type": 2
  },
  {
    "city_code": "210600",
    "city_name": "丹东市",
    "name_en": "Dandong Shi",
    "letter": "D",
    "province_code": "210000",
    "province_name": "辽宁省",
    "lon": "124.338543",
    "lat": "40.129022",
    "province_id": 6,
    "city_id": 44,
    "type": 2
  },
  {
    "city_code": "210700",
    "city_name": "锦州市",
    "name_en": "Jinzhou Shi",
    "letter": "J",
    "province_code": "210000",
    "province_name": "辽宁省",
    "lon": "121.147748",
    "lat": "41.130878",
    "province_id": 6,
    "city_id": 45,
    "type": 2
  },
  {
    "city_code": "210800",
    "city_name": "营口市",
    "name_en": "Yingkou Shi",
    "letter": "Y",
    "province_code": "210000",
    "province_name": "辽宁省",
    "lon": "122.233391",
    "lat": "40.668651",
    "province_id": 6,
    "city_id": 46,
    "type": 2
  },
  {
    "city_code": "210900",
    "city_name": "阜新市",
    "name_en": "Fuxin Shi",
    "letter": "F",
    "province_code": "210000",
    "province_name": "辽宁省",
    "lon": "121.660822",
    "lat": "42.019250",
    "province_id": 6,
    "city_id": 47,
    "type": 2
  },
  {
    "city_code": "211000",
    "city_name": "辽阳市",
    "name_en": "Liaoyang Shi",
    "letter": "L",
    "province_code": "210000",
    "province_name": "辽宁省",
    "lon": "123.172451",
    "lat": "41.273339",
    "province_id": 6,
    "city_id": 48,
    "type": 2
  },
  {
    "city_code": "211100",
    "city_name": "盘锦市",
    "name_en": "Panjin Shi",
    "letter": "P",
    "province_code": "210000",
    "province_name": "辽宁省",
    "lon": "122.073227",
    "lat": "41.141248",
    "province_id": 6,
    "city_id": 49,
    "type": 2
  },
  {
    "city_code": "211200",
    "city_name": "铁岭市",
    "name_en": "Tieling Shi",
    "letter": "T",
    "province_code": "210000",
    "province_name": "辽宁省",
    "lon": "123.854849",
    "lat": "42.299757",
    "province_id": 6,
    "city_id": 50,
    "type": 2
  },
  {
    "city_code": "211300",
    "city_name": "朝阳市",
    "name_en": "Chaoyang Shi",
    "letter": "C",
    "province_code": "210000",
    "province_name": "辽宁省",
    "lon": "120.446162",
    "lat": "41.571827",
    "province_id": 6,
    "city_id": 51,
    "type": 2
  },
  {
    "city_code": "211400",
    "city_name": "葫芦岛市",
    "name_en": "Huludao Shi",
    "letter": "H",
    "province_code": "210000",
    "province_name": "辽宁省",
    "lon": "120.860757",
    "lat": "40.743029",
    "province_id": 6,
    "city_id": 52,
    "type": 2
  },
  {
    "city_code": "220100",
    "city_name": "长春市",
    "name_en": "Changchun Shi ",
    "letter": "C",
    "province_code": "220000",
    "province_name": "吉林省",
    "lon": "125.313642",
    "lat": "43.898337",
    "province_id": 7,
    "city_id": 53,
    "type": 2
  },
  {
    "city_code": "220200",
    "city_name": "吉林市",
    "name_en": "Jilin Shi ",
    "letter": "J",
    "province_code": "220000",
    "province_name": "吉林省",
    "lon": "126.564543",
    "lat": "43.871988",
    "province_id": 7,
    "city_id": 54,
    "type": 2
  },
  {
    "city_code": "220300",
    "city_name": "四平市",
    "name_en": "Siping Shi",
    "letter": "S",
    "province_code": "220000",
    "province_name": "吉林省",
    "lon": "124.391382",
    "lat": "43.175524",
    "province_id": 7,
    "city_id": 55,
    "type": 2
  },
  {
    "city_code": "220400",
    "city_name": "辽源市",
    "name_en": "Liaoyuan Shi",
    "letter": "L",
    "province_code": "220000",
    "province_name": "吉林省",
    "lon": "125.133686",
    "lat": "42.923302",
    "province_id": 7,
    "city_id": 56,
    "type": 2
  },
  {
    "city_code": "220500",
    "city_name": "通化市",
    "name_en": "Tonghua Shi",
    "letter": "T",
    "province_code": "220000",
    "province_name": "吉林省",
    "lon": "125.942650",
    "lat": "41.736397",
    "province_id": 7,
    "city_id": 57,
    "type": 2
  },
  {
    "city_code": "220600",
    "city_name": "白山市",
    "name_en": "Baishan Shi",
    "letter": "B",
    "province_code": "220000",
    "province_name": "吉林省",
    "lon": "126.435797",
    "lat": "41.945859",
    "province_id": 7,
    "city_id": 58,
    "type": 2
  },
  {
    "city_code": "220700",
    "city_name": "松原市",
    "name_en": "Songyuan Shi",
    "letter": "S",
    "province_code": "220000",
    "province_name": "吉林省",
    "lon": "124.832994",
    "lat": "45.136048",
    "province_id": 7,
    "city_id": 59,
    "type": 2
  },
  {
    "city_code": "220800",
    "city_name": "白城市",
    "name_en": "Baicheng Shi",
    "letter": "B",
    "province_code": "220000",
    "province_name": "吉林省",
    "lon": "122.840776",
    "lat": "45.621086",
    "province_id": 7,
    "city_id": 60,
    "type": 2
  },
  {
    "city_code": "222400",
    "city_name": "延边朝鲜族自治州",
    "name_en": "Yanbian Chosenzu Zizhizhou",
    "letter": "Y",
    "province_code": "220000",
    "province_name": "吉林省",
    "lon": "129.485901",
    "lat": "42.896413",
    "province_id": 7,
    "city_id": 61,
    "type": 2
  },
  {
    "city_code": "230100",
    "city_name": "哈尔滨市",
    "name_en": "Harbin Shi",
    "letter": "H",
    "province_code": "230000",
    "province_name": "黑龙江省",
    "lon": "126.657716",
    "lat": "45.773224",
    "province_id": 8,
    "city_id": 62,
    "type": 2
  },
  {
    "city_code": "230200",
    "city_name": "齐齐哈尔市",
    "name_en": "Qiqihar Shi",
    "letter": "Q",
    "province_code": "230000",
    "province_name": "黑龙江省",
    "lon": "123.987288",
    "lat": "47.347699",
    "province_id": 8,
    "city_id": 63,
    "type": 2
  },
  {
    "city_code": "230300",
    "city_name": "鸡西市",
    "name_en": "Jixi Shi",
    "letter": "J",
    "province_code": "230000",
    "province_name": "黑龙江省",
    "lon": "130.941767",
    "lat": "45.321539",
    "province_id": 8,
    "city_id": 64,
    "type": 2
  },
  {
    "city_code": "230400",
    "city_name": "鹤岗市",
    "name_en": "Hegang Shi",
    "letter": "H",
    "province_code": "230000",
    "province_name": "黑龙江省",
    "lon": "130.292472",
    "lat": "47.338665",
    "province_id": 8,
    "city_id": 65,
    "type": 2
  },
  {
    "city_code": "230500",
    "city_name": "双鸭山市",
    "name_en": "Shuangyashan Shi",
    "letter": "S",
    "province_code": "230000",
    "province_name": "黑龙江省",
    "lon": "131.171401",
    "lat": "46.655102",
    "province_id": 8,
    "city_id": 66,
    "type": 2
  },
  {
    "city_code": "230600",
    "city_name": "大庆市",
    "name_en": "Daqing Shi",
    "letter": "D",
    "province_code": "230000",
    "province_name": "黑龙江省",
    "lon": "125.021839",
    "lat": "46.596709",
    "province_id": 8,
    "city_id": 67,
    "type": 2
  },
  {
    "city_code": "230700",
    "city_name": "伊春市",
    "name_en": "Yichun Shi",
    "letter": "Y",
    "province_code": "230000",
    "province_name": "黑龙江省",
    "lon": "128.910765",
    "lat": "47.734685",
    "province_id": 8,
    "city_id": 68,
    "type": 2
  },
  {
    "city_code": "230800",
    "city_name": "佳木斯市",
    "name_en": "Jiamusi Shi",
    "letter": "J",
    "province_code": "230000",
    "province_name": "黑龙江省",
    "lon": "130.284734",
    "lat": "46.813779",
    "province_id": 8,
    "city_id": 69,
    "type": 2
  },
  {
    "city_code": "230900",
    "city_name": "七台河市",
    "name_en": "Qitaihe Shi",
    "letter": "Q",
    "province_code": "230000",
    "province_name": "黑龙江省",
    "lon": "131.019048",
    "lat": "45.775005",
    "province_id": 8,
    "city_id": 70,
    "type": 2
  },
  {
    "city_code": "231000",
    "city_name": "牡丹江市",
    "name_en": "Mudanjiang Shi",
    "letter": "M",
    "province_code": "230000",
    "province_name": "黑龙江省",
    "lon": "129.608035",
    "lat": "44.588521",
    "province_id": 8,
    "city_id": 71,
    "type": 2
  },
  {
    "city_code": "231100",
    "city_name": "黑河市",
    "name_en": "Heihe Shi",
    "letter": "H",
    "province_code": "230000",
    "province_name": "黑龙江省",
    "lon": "127.500830",
    "lat": "50.250690",
    "province_id": 8,
    "city_id": 72,
    "type": 2
  },
  {
    "city_code": "231200",
    "city_name": "绥化市",
    "name_en": "Suihua Shi",
    "letter": "S",
    "province_code": "230000",
    "province_name": "黑龙江省",
    "lon": "126.989094",
    "lat": "46.646063",
    "province_id": 8,
    "city_id": 73,
    "type": 2
  },
  {
    "city_code": "232700",
    "city_name": "大兴安岭地区",
    "name_en": "Da Hinggan Ling Diqu",
    "letter": "D",
    "province_code": "230000",
    "province_name": "黑龙江省",
    "lon": "124.196104",
    "lat": "51.991788",
    "province_id": 8,
    "city_id": 74,
    "type": 2
  },
  {
    "city_code": "310100",
    "city_name": "上海市",
    "name_en": "Shanghai",
    "letter": "S",
    "province_code": "310000",
    "province_name": "上海市",
    "lon": "121.487899",
    "lat": "31.249161",
    "province_id": 9,
    "city_id": 75,
    "type": 2
  },
  {
    "city_code": "320100",
    "city_name": "南京市",
    "name_en": "Nanjing Shi",
    "letter": "N",
    "province_code": "320000",
    "province_name": "江苏省",
    "lon": "118.778074",
    "lat": "32.057235",
    "province_id": 10,
    "city_id": 76,
    "type": 2
  },
  {
    "city_code": "320200",
    "city_name": "无锡市",
    "name_en": "Wuxi Shi",
    "letter": "W",
    "province_code": "320000",
    "province_name": "江苏省",
    "lon": "120.305455",
    "lat": "31.570037",
    "province_id": 10,
    "city_id": 77,
    "type": 2
  },
  {
    "city_code": "320300",
    "city_name": "徐州市",
    "name_en": "Xuzhou Shi",
    "letter": "X",
    "province_code": "320000",
    "province_name": "江苏省",
    "lon": "117.188106",
    "lat": "34.271553",
    "province_id": 10,
    "city_id": 78,
    "type": 2
  },
  {
    "city_code": "320400",
    "city_name": "常州市",
    "name_en": "Changzhou Shi",
    "letter": "C",
    "province_code": "320000",
    "province_name": "江苏省",
    "lon": "119.981861",
    "lat": "31.771396",
    "province_id": 10,
    "city_id": 79,
    "type": 2
  },
  {
    "city_code": "320500",
    "city_name": "苏州市",
    "name_en": "Suzhou Shi",
    "letter": "S",
    "province_code": "320000",
    "province_name": "江苏省",
    "lon": "120.619907",
    "lat": "31.317987",
    "province_id": 10,
    "city_id": 80,
    "type": 2
  },
  {
    "city_code": "320600",
    "city_name": "南通市",
    "name_en": "Nantong Shi",
    "letter": "N",
    "province_code": "320000",
    "province_name": "江苏省",
    "lon": "120.873800",
    "lat": "32.014664",
    "province_id": 10,
    "city_id": 81,
    "type": 2
  },
  {
    "city_code": "320700",
    "city_name": "连云港市",
    "name_en": "Lianyungang Shi",
    "letter": "L",
    "province_code": "320000",
    "province_name": "江苏省",
    "lon": "119.173872",
    "lat": "34.601548",
    "province_id": 10,
    "city_id": 82,
    "type": 2
  },
  {
    "city_code": "320800",
    "city_name": "淮安市",
    "name_en": "Huai,an Xian",
    "letter": "H",
    "province_code": "320000",
    "province_name": "江苏省",
    "lon": "119.030186",
    "lat": "33.606512",
    "province_id": 10,
    "city_id": 83,
    "type": 2
  },
  {
    "city_code": "320900",
    "city_name": "盐城市",
    "name_en": "Yancheng Shi",
    "letter": "Y",
    "province_code": "320000",
    "province_name": "江苏省",
    "lon": "120.148871",
    "lat": "33.379861",
    "province_id": 10,
    "city_id": 84,
    "type": 2
  },
  {
    "city_code": "321000",
    "city_name": "扬州市",
    "name_en": "Yangzhou Shi",
    "letter": "Y",
    "province_code": "320000",
    "province_name": "江苏省",
    "lon": "119.427777",
    "lat": "32.408505",
    "province_id": 10,
    "city_id": 85,
    "type": 2
  },
  {
    "city_code": "321100",
    "city_name": "镇江市",
    "name_en": "Zhenjiang Shi",
    "letter": "Z",
    "province_code": "320000",
    "province_name": "江苏省",
    "lon": "119.455835",
    "lat": "32.204409",
    "province_id": 10,
    "city_id": 86,
    "type": 2
  },
  {
    "city_code": "321200",
    "city_name": "泰州市",
    "name_en": "Taizhou Shi",
    "letter": "T",
    "province_code": "320000",
    "province_name": "江苏省",
    "lon": "119.919606",
    "lat": "32.476053",
    "province_id": 10,
    "city_id": 87,
    "type": 2
  },
  {
    "city_code": "321300",
    "city_name": "宿迁市",
    "name_en": "Suqian Shi",
    "letter": "S",
    "province_code": "320000",
    "province_name": "江苏省",
    "lon": "118.296893",
    "lat": "33.952049",
    "province_id": 10,
    "city_id": 88,
    "type": 2
  },
  {
    "city_code": "330100",
    "city_name": "杭州市",
    "name_en": "Hangzhou Shi",
    "letter": "H",
    "province_code": "330000",
    "province_name": "浙江省",
    "lon": "120.219375",
    "lat": "30.259244",
    "province_id": 11,
    "city_id": 89,
    "type": 2
  },
  {
    "city_code": "330200",
    "city_name": "宁波市",
    "name_en": "Ningbo Shi",
    "letter": "N",
    "province_code": "330000",
    "province_name": "浙江省",
    "lon": "121.579005",
    "lat": "29.885258",
    "province_id": 11,
    "city_id": 90,
    "type": 2
  },
  {
    "city_code": "330300",
    "city_name": "温州市",
    "name_en": "Wenzhou Shi",
    "letter": "W",
    "province_code": "330000",
    "province_name": "浙江省",
    "lon": "120.690634",
    "lat": "28.002837",
    "province_id": 11,
    "city_id": 91,
    "type": 2
  },
  {
    "city_code": "330400",
    "city_name": "嘉兴市",
    "name_en": "Jiaxing Shi",
    "letter": "J",
    "province_code": "330000",
    "province_name": "浙江省",
    "lon": "120.760427",
    "lat": "30.773992",
    "province_id": 11,
    "city_id": 92,
    "type": 2
  },
  {
    "city_code": "330500",
    "city_name": "湖州市",
    "name_en": "Huzhou Shi ",
    "letter": "H",
    "province_code": "330000",
    "province_name": "浙江省",
    "lon": "120.137243",
    "lat": "30.877925",
    "province_id": 11,
    "city_id": 93,
    "type": 2
  },
  {
    "city_code": "330600",
    "city_name": "绍兴市",
    "name_en": "Shaoxing Shi",
    "letter": "S",
    "province_code": "330000",
    "province_name": "浙江省",
    "lon": "120.592467",
    "lat": "30.002364",
    "province_id": 11,
    "city_id": 94,
    "type": 2
  },
  {
    "city_code": "330700",
    "city_name": "金华市",
    "name_en": "Jinhua Shi",
    "letter": "J",
    "province_code": "330000",
    "province_name": "浙江省",
    "lon": "119.652575",
    "lat": "29.102899",
    "province_id": 11,
    "city_id": 95,
    "type": 2
  },
  {
    "city_code": "330800",
    "city_name": "衢州市",
    "name_en": "Quzhou Shi",
    "letter": "Q",
    "province_code": "330000",
    "province_name": "浙江省",
    "lon": "118.875841",
    "lat": "28.956910",
    "province_id": 11,
    "city_id": 96,
    "type": 2
  },
  {
    "city_code": "330900",
    "city_name": "舟山市",
    "name_en": "Zhoushan Shi",
    "letter": "Z",
    "province_code": "330000",
    "province_name": "浙江省",
    "lon": "122.169872",
    "lat": "30.036010",
    "province_id": 11,
    "city_id": 97,
    "type": 2
  },
  {
    "city_code": "331000",
    "city_name": "台州市",
    "name_en": "Taizhou Shi",
    "letter": "T",
    "province_code": "330000",
    "province_name": "浙江省",
    "lon": "121.440612",
    "lat": "28.668283",
    "province_id": 11,
    "city_id": 98,
    "type": 2
  },
  {
    "city_code": "331100",
    "city_name": "丽水市",
    "name_en": "Lishui Shi",
    "letter": "L",
    "province_code": "330000",
    "province_name": "浙江省",
    "lon": "119.929575",
    "lat": "28.456299",
    "province_id": 11,
    "city_id": 99,
    "type": 2
  },
  {
    "city_code": "340100",
    "city_name": "合肥市",
    "name_en": "Hefei Shi",
    "letter": "H",
    "province_code": "340000",
    "province_name": "安徽省",
    "lon": "117.282699",
    "lat": "31.866942",
    "province_id": 12,
    "city_id": 100,
    "type": 2
  },
  {
    "city_code": "340200",
    "city_name": "芜湖市",
    "name_en": "Wuhu Shi",
    "letter": "W",
    "province_code": "340000",
    "province_name": "安徽省",
    "lon": "118.384108",
    "lat": "31.366019",
    "province_id": 12,
    "city_id": 101,
    "type": 2
  },
  {
    "city_code": "340300",
    "city_name": "蚌埠市",
    "name_en": "Bengbu Shi",
    "letter": "B",
    "province_code": "340000",
    "province_name": "安徽省",
    "lon": "117.357079",
    "lat": "32.929498",
    "province_id": 12,
    "city_id": 102,
    "type": 2
  },
  {
    "city_code": "340400",
    "city_name": "淮南市",
    "name_en": "Huainan Shi",
    "letter": "H",
    "province_code": "340000",
    "province_name": "安徽省",
    "lon": "117.018638",
    "lat": "32.642811",
    "province_id": 12,
    "city_id": 103,
    "type": 2
  },
  {
    "city_code": "340500",
    "city_name": "马鞍山市",
    "name_en": "Ma,anshan Shi",
    "letter": "M",
    "province_code": "340000",
    "province_name": "安徽省",
    "lon": "118.515881",
    "lat": "31.688528",
    "province_id": 12,
    "city_id": 104,
    "type": 2
  },
  {
    "city_code": "340600",
    "city_name": "淮北市",
    "name_en": "Huaibei Shi",
    "letter": "H",
    "province_code": "340000",
    "province_name": "安徽省",
    "lon": "116.791447",
    "lat": "33.960023",
    "province_id": 12,
    "city_id": 105,
    "type": 2
  },
  {
    "city_code": "340700",
    "city_name": "铜陵市",
    "name_en": "Tongling Shi",
    "letter": "T",
    "province_code": "340000",
    "province_name": "安徽省",
    "lon": "117.819428",
    "lat": "30.940929",
    "province_id": 12,
    "city_id": 106,
    "type": 2
  },
  {
    "city_code": "340800",
    "city_name": "安庆市",
    "name_en": "Anqing Shi",
    "letter": "A",
    "province_code": "340000",
    "province_name": "安徽省",
    "lon": "117.058738",
    "lat": "30.537897",
    "province_id": 12,
    "city_id": 107,
    "type": 2
  },
  {
    "city_code": "341000",
    "city_name": "黄山市",
    "name_en": "Huangshan Shi",
    "letter": "H",
    "province_code": "340000",
    "province_name": "安徽省",
    "lon": "118.293569",
    "lat": "29.734434",
    "province_id": 12,
    "city_id": 108,
    "type": 2
  },
  {
    "city_code": "341100",
    "city_name": "滁州市",
    "name_en": "Chuzhou Shi",
    "letter": "C",
    "province_code": "340000",
    "province_name": "安徽省",
    "lon": "118.324570",
    "lat": "32.317350",
    "province_id": 12,
    "city_id": 109,
    "type": 2
  },
  {
    "city_code": "341200",
    "city_name": "阜阳市",
    "name_en": "Fuyang Shi",
    "letter": "F",
    "province_code": "340000",
    "province_name": "安徽省",
    "lon": "115.820932",
    "lat": "32.901211",
    "province_id": 12,
    "city_id": 110,
    "type": 2
  },
  {
    "city_code": "341300",
    "city_name": "宿州市",
    "name_en": "Suzhou Shi",
    "letter": "S",
    "province_code": "340000",
    "province_name": "安徽省",
    "lon": "116.988692",
    "lat": "33.636772",
    "province_id": 12,
    "city_id": 111,
    "type": 2
  },
  {
    "city_code": "341500",
    "city_name": "六安市",
    "name_en": "Liu,an Shi",
    "letter": "L",
    "province_code": "340000",
    "province_name": "安徽省",
    "lon": "116.505252",
    "lat": "31.755558",
    "province_id": 12,
    "city_id": 112,
    "type": 2
  },
  {
    "city_code": "341600",
    "city_name": "亳州市",
    "name_en": "Bozhou Shi",
    "letter": "B",
    "province_code": "340000",
    "province_name": "安徽省",
    "lon": "115.787928",
    "lat": "33.871210",
    "province_id": 12,
    "city_id": 113,
    "type": 2
  },
  {
    "city_code": "341700",
    "city_name": "池州市",
    "name_en": "Chizhou Shi",
    "letter": "C",
    "province_code": "340000",
    "province_name": "安徽省",
    "lon": "117.494476",
    "lat": "30.660019",
    "province_id": 12,
    "city_id": 114,
    "type": 2
  },
  {
    "city_code": "341800",
    "city_name": "宣城市",
    "name_en": "Xuancheng Shi",
    "letter": "X",
    "province_code": "340000",
    "province_name": "安徽省",
    "lon": "118.752096",
    "lat": "30.951642",
    "province_id": 12,
    "city_id": 115,
    "type": 2
  },
  {
    "city_code": "350100",
    "city_name": "福州市",
    "name_en": "Fuzhou Shi",
    "letter": "F",
    "province_code": "350000",
    "province_name": "福建省",
    "lon": "119.330221",
    "lat": "26.047125",
    "province_id": 13,
    "city_id": 116,
    "type": 2
  },
  {
    "city_code": "350200",
    "city_name": "厦门市",
    "name_en": "Xiamen Shi",
    "letter": "X",
    "province_code": "350000",
    "province_name": "福建省",
    "lon": "118.103886",
    "lat": "24.489230",
    "province_id": 13,
    "city_id": 117,
    "type": 2
  },
  {
    "city_code": "350300",
    "city_name": "莆田市",
    "name_en": "Putian Shi",
    "letter": "P",
    "province_code": "350000",
    "province_name": "福建省",
    "lon": "119.077730",
    "lat": "25.448450",
    "province_id": 13,
    "city_id": 118,
    "type": 2
  },
  {
    "city_code": "350400",
    "city_name": "三明市",
    "name_en": "Sanming Shi",
    "letter": "S",
    "province_code": "350000",
    "province_name": "福建省",
    "lon": "117.642193",
    "lat": "26.270835",
    "province_id": 13,
    "city_id": 119,
    "type": 2
  },
  {
    "city_code": "350500",
    "city_name": "泉州市",
    "name_en": "Quanzhou Shi",
    "letter": "Q",
    "province_code": "350000",
    "province_name": "福建省",
    "lon": "118.600362",
    "lat": "24.901652",
    "province_id": 13,
    "city_id": 120,
    "type": 2
  },
  {
    "city_code": "350600",
    "city_name": "漳州市",
    "name_en": "Zhangzhou Shi",
    "letter": "Z",
    "province_code": "350000",
    "province_name": "福建省",
    "lon": "117.676204",
    "lat": "24.517064",
    "province_id": 13,
    "city_id": 121,
    "type": 2
  },
  {
    "city_code": "350700",
    "city_name": "南平市",
    "name_en": "Nanping Shi",
    "letter": "N",
    "province_code": "350000",
    "province_name": "福建省",
    "lon": "118.181882",
    "lat": "26.643626",
    "province_id": 13,
    "city_id": 122,
    "type": 2
  },
  {
    "city_code": "350800",
    "city_name": "龙岩市",
    "name_en": "Longyan Shi",
    "letter": "L",
    "province_code": "350000",
    "province_name": "福建省",
    "lon": "117.017996",
    "lat": "25.078685",
    "province_id": 13,
    "city_id": 123,
    "type": 2
  },
  {
    "city_code": "350900",
    "city_name": "宁德市",
    "name_en": "Ningde Shi",
    "letter": "N",
    "province_code": "350000",
    "province_name": "福建省",
    "lon": "119.542082",
    "lat": "26.656527",
    "province_id": 13,
    "city_id": 124,
    "type": 2
  },
  {
    "city_code": "360100",
    "city_name": "南昌市",
    "name_en": "Nanchang Shi",
    "letter": "N",
    "province_code": "360000",
    "province_name": "江西省",
    "lon": "115.893527",
    "lat": "28.689578",
    "province_id": 14,
    "city_id": 125,
    "type": 2
  },
  {
    "city_code": "360200",
    "city_name": "景德镇市",
    "name_en": "Jingdezhen Shi",
    "letter": "J",
    "province_code": "360000",
    "province_name": "江西省",
    "lon": "117.186522",
    "lat": "29.303562",
    "province_id": 14,
    "city_id": 126,
    "type": 2
  },
  {
    "city_code": "360300",
    "city_name": "萍乡市",
    "name_en": "Pingxiang Shi",
    "letter": "P",
    "province_code": "360000",
    "province_name": "江西省",
    "lon": "113.859917",
    "lat": "27.639544",
    "province_id": 14,
    "city_id": 127,
    "type": 2
  },
  {
    "city_code": "360400",
    "city_name": "九江市",
    "name_en": "Jiujiang Shi",
    "letter": "J",
    "province_code": "360000",
    "province_name": "江西省",
    "lon": "115.999848",
    "lat": "29.719639",
    "province_id": 14,
    "city_id": 128,
    "type": 2
  },
  {
    "city_code": "360500",
    "city_name": "新余市",
    "name_en": "Xinyu Shi",
    "letter": "X",
    "province_code": "360000",
    "province_name": "江西省",
    "lon": "114.947117",
    "lat": "27.822321",
    "province_id": 14,
    "city_id": 129,
    "type": 2
  },
  {
    "city_code": "360600",
    "city_name": "鹰潭市",
    "name_en": "Yingtan Shi",
    "letter": "Y",
    "province_code": "360000",
    "province_name": "江西省",
    "lon": "117.035450",
    "lat": "28.241309",
    "province_id": 14,
    "city_id": 130,
    "type": 2
  },
  {
    "city_code": "360700",
    "city_name": "赣州市",
    "name_en": "Ganzhou Shi",
    "letter": "G",
    "province_code": "360000",
    "province_name": "江西省",
    "lon": "114.935909",
    "lat": "25.845295",
    "province_id": 14,
    "city_id": 131,
    "type": 2
  },
  {
    "city_code": "360800",
    "city_name": "吉安市",
    "name_en": "Ji,an Shi",
    "letter": "J",
    "province_code": "360000",
    "province_name": "江西省",
    "lon": "114.992038",
    "lat": "27.113847",
    "province_id": 14,
    "city_id": 132,
    "type": 2
  },
  {
    "city_code": "360900",
    "city_name": "宜春市",
    "name_en": "Yichun Shi",
    "letter": "Y",
    "province_code": "360000",
    "province_name": "江西省",
    "lon": "114.400038",
    "lat": "27.811129",
    "province_id": 14,
    "city_id": 133,
    "type": 2
  },
  {
    "city_code": "361000",
    "city_name": "抚州市",
    "name_en": "Fuzhou Shi",
    "letter": "F",
    "province_code": "360000",
    "province_name": "江西省",
    "lon": "116.360918",
    "lat": "27.954545",
    "province_id": 14,
    "city_id": 134,
    "type": 2
  },
  {
    "city_code": "361100",
    "city_name": "上饶市",
    "name_en": "Shangrao Shi",
    "letter": "S",
    "province_code": "360000",
    "province_name": "江西省",
    "lon": "117.955463",
    "lat": "28.457622",
    "province_id": 14,
    "city_id": 135,
    "type": 2
  },
  {
    "city_code": "370100",
    "city_name": "济南市",
    "name_en": "Jinan Shi",
    "letter": "J",
    "province_code": "370000",
    "province_name": "山东省",
    "lon": "117.024967",
    "lat": "36.682784",
    "province_id": 15,
    "city_id": 136,
    "type": 2
  },
  {
    "city_code": "370200",
    "city_name": "青岛市",
    "name_en": "Qingdao Shi",
    "letter": "Q",
    "province_code": "370000",
    "province_name": "山东省",
    "lon": "120.384428",
    "lat": "36.105214",
    "province_id": 15,
    "city_id": 137,
    "type": 2
  },
  {
    "city_code": "370300",
    "city_name": "淄博市",
    "name_en": "Zibo Shi",
    "letter": "Z",
    "province_code": "370000",
    "province_name": "山东省",
    "lon": "118.059134",
    "lat": "36.804684",
    "province_id": 15,
    "city_id": 138,
    "type": 2
  },
  {
    "city_code": "370400",
    "city_name": "枣庄市",
    "name_en": "Zaozhuang Shi",
    "letter": "Z",
    "province_code": "370000",
    "province_name": "山东省",
    "lon": "117.279305",
    "lat": "34.807883",
    "province_id": 15,
    "city_id": 139,
    "type": 2
  },
  {
    "city_code": "370500",
    "city_name": "东营市",
    "name_en": "Dongying Shi",
    "letter": "D",
    "province_code": "370000",
    "province_name": "山东省",
    "lon": "118.583926",
    "lat": "37.487121",
    "province_id": 15,
    "city_id": 140,
    "type": 2
  },
  {
    "city_code": "370600",
    "city_name": "烟台市",
    "name_en": "Yantai Shi",
    "letter": "Y",
    "province_code": "370000",
    "province_name": "山东省",
    "lon": "121.309555",
    "lat": "37.536561",
    "province_id": 15,
    "city_id": 141,
    "type": 2
  },
  {
    "city_code": "370700",
    "city_name": "潍坊市",
    "name_en": "Weifang Shi",
    "letter": "W",
    "province_code": "370000",
    "province_name": "山东省",
    "lon": "119.142633",
    "lat": "36.716114",
    "province_id": 15,
    "city_id": 142,
    "type": 2
  },
  {
    "city_code": "370800",
    "city_name": "济宁市",
    "name_en": "Jining Shi",
    "letter": "J",
    "province_code": "370000",
    "province_name": "山东省",
    "lon": "116.600797",
    "lat": "35.402121",
    "province_id": 15,
    "city_id": 143,
    "type": 2
  },
  {
    "city_code": "370900",
    "city_name": "泰安市",
    "name_en": "Tai,an Shi",
    "letter": "T",
    "province_code": "370000",
    "province_name": "山东省",
    "lon": "117.089414",
    "lat": "36.188077",
    "province_id": 15,
    "city_id": 144,
    "type": 2
  },
  {
    "city_code": "371000",
    "city_name": "威海市",
    "name_en": "Weihai Shi",
    "letter": "W",
    "province_code": "370000",
    "province_name": "山东省",
    "lon": "122.093958",
    "lat": "37.528787",
    "province_id": 15,
    "city_id": 145,
    "type": 2
  },
  {
    "city_code": "371100",
    "city_name": "日照市",
    "name_en": "Rizhao Shi",
    "letter": "R",
    "province_code": "370000",
    "province_name": "山东省",
    "lon": "119.507179",
    "lat": "35.420225",
    "province_id": 15,
    "city_id": 146,
    "type": 2
  },
  {
    "city_code": "371200",
    "city_name": "莱芜市",
    "name_en": "Laiwu Shi",
    "letter": "L",
    "province_code": "370000",
    "province_name": "山东省",
    "lon": "117.684666",
    "lat": "36.233654",
    "province_id": 15,
    "city_id": 147,
    "type": 2
  },
  {
    "city_code": "371300",
    "city_name": "临沂市",
    "name_en": "Linyi Shi",
    "letter": "L",
    "province_code": "370000",
    "province_name": "山东省",
    "lon": "118.340768",
    "lat": "35.072409",
    "province_id": 15,
    "city_id": 148,
    "type": 2
  },
  {
    "city_code": "371400",
    "city_name": "德州市",
    "name_en": "Dezhou Shi",
    "letter": "D",
    "province_code": "370000",
    "province_name": "山东省",
    "lon": "116.328161",
    "lat": "37.460825",
    "province_id": 15,
    "city_id": 149,
    "type": 2
  },
  {
    "city_code": "371500",
    "city_name": "聊城市",
    "name_en": "Liaocheng Shi",
    "letter": "L",
    "province_code": "370000",
    "province_name": "山东省",
    "lon": "115.986869",
    "lat": "36.455828",
    "province_id": 15,
    "city_id": 150,
    "type": 2
  },
  {
    "city_code": "371600",
    "city_name": "滨州市",
    "name_en": "Binzhou Shi",
    "letter": "B",
    "province_code": "370000",
    "province_name": "山东省",
    "lon": "117.968292",
    "lat": "37.405313",
    "province_id": 15,
    "city_id": 151,
    "type": 2
  },
  {
    "city_code": "371700",
    "city_name": "菏泽市",
    "name_en": "Heze Shi",
    "letter": "H",
    "province_code": "370000",
    "province_name": "山东省",
    "lon": "115.463359",
    "lat": "35.262440",
    "province_id": 15,
    "city_id": 152,
    "type": 2
  },
  {
    "city_code": "410100",
    "city_name": "郑州市",
    "name_en": "Zhengzhou Shi",
    "letter": "Z",
    "province_code": "410000",
    "province_name": "河南省",
    "lon": "113.649643",
    "lat": "34.756610",
    "province_id": 16,
    "city_id": 153,
    "type": 2
  },
  {
    "city_code": "410200",
    "city_name": "开封市",
    "name_en": "Kaifeng Shi",
    "letter": "K",
    "province_code": "410000",
    "province_name": "河南省",
    "lon": "114.351642",
    "lat": "34.801854",
    "province_id": 16,
    "city_id": 154,
    "type": 2
  },
  {
    "city_code": "410300",
    "city_name": "洛阳市",
    "name_en": "Luoyang Shi",
    "letter": "L",
    "province_code": "410000",
    "province_name": "河南省",
    "lon": "112.447524",
    "lat": "34.657367",
    "province_id": 16,
    "city_id": 155,
    "type": 2
  },
  {
    "city_code": "410400",
    "city_name": "平顶山市",
    "name_en": "Pingdingshan Shi",
    "letter": "P",
    "province_code": "410000",
    "province_name": "河南省",
    "lon": "113.300848",
    "lat": "33.745301",
    "province_id": 16,
    "city_id": 156,
    "type": 2
  },
  {
    "city_code": "410500",
    "city_name": "安阳市",
    "name_en": "Anyang Shi",
    "letter": "A",
    "province_code": "410000",
    "province_name": "河南省",
    "lon": "114.351806",
    "lat": "36.110266",
    "province_id": 16,
    "city_id": 157,
    "type": 2
  },
  {
    "city_code": "410600",
    "city_name": "鹤壁市",
    "name_en": "Hebi Shi",
    "letter": "H",
    "province_code": "410000",
    "province_name": "河南省",
    "lon": "114.297769",
    "lat": "35.755425",
    "province_id": 16,
    "city_id": 158,
    "type": 2
  },
  {
    "city_code": "410700",
    "city_name": "新乡市",
    "name_en": "Xinxiang Shi",
    "letter": "X",
    "province_code": "410000",
    "province_name": "河南省",
    "lon": "113.912690",
    "lat": "35.307257",
    "province_id": 16,
    "city_id": 159,
    "type": 2
  },
  {
    "city_code": "410800",
    "city_name": "焦作市",
    "name_en": "Jiaozuo Shi",
    "letter": "J",
    "province_code": "410000",
    "province_name": "河南省",
    "lon": "113.211835",
    "lat": "35.234607",
    "province_id": 16,
    "city_id": 160,
    "type": 2
  },
  {
    "city_code": "410900",
    "city_name": "濮阳市",
    "name_en": "Puyang Shi",
    "letter": "P",
    "province_code": "410000",
    "province_name": "河南省",
    "lon": "115.026627",
    "lat": "35.753297",
    "province_id": 16,
    "city_id": 161,
    "type": 2
  },
  {
    "city_code": "411000",
    "city_name": "许昌市",
    "name_en": "Xuchang Shi",
    "letter": "X",
    "province_code": "410000",
    "province_name": "河南省",
    "lon": "113.835312",
    "lat": "34.026739",
    "province_id": 16,
    "city_id": 162,
    "type": 2
  },
  {
    "city_code": "411100",
    "city_name": "漯河市",
    "name_en": "Luohe Shi",
    "letter": "L",
    "province_code": "410000",
    "province_name": "河南省",
    "lon": "114.046061",
    "lat": "33.576278",
    "province_id": 16,
    "city_id": 163,
    "type": 2
  },
  {
    "city_code": "411200",
    "city_name": "三门峡市",
    "name_en": "Sanmenxia Shi",
    "letter": "S",
    "province_code": "410000",
    "province_name": "河南省",
    "lon": "111.181262",
    "lat": "34.783319",
    "province_id": 16,
    "city_id": 164,
    "type": 2
  },
  {
    "city_code": "411300",
    "city_name": "南阳市",
    "name_en": "Nanyang Shi",
    "letter": "N",
    "province_code": "410000",
    "province_name": "河南省",
    "lon": "112.542841",
    "lat": "33.011419",
    "province_id": 16,
    "city_id": 165,
    "type": 2
  },
  {
    "city_code": "411400",
    "city_name": "商丘市",
    "name_en": "Shangqiu Shi",
    "letter": "S",
    "province_code": "410000",
    "province_name": "河南省",
    "lon": "115.641885",
    "lat": "34.438588",
    "province_id": 16,
    "city_id": 166,
    "type": 2
  },
  {
    "city_code": "411500",
    "city_name": "信阳市",
    "name_en": "Xinyang Shi",
    "letter": "X",
    "province_code": "410000",
    "province_name": "河南省",
    "lon": "114.085490",
    "lat": "32.128582",
    "province_id": 16,
    "city_id": 167,
    "type": 2
  },
  {
    "city_code": "411600",
    "city_name": "周口市",
    "name_en": "Zhoukou Shi",
    "letter": "Z",
    "province_code": "410000",
    "province_name": "河南省",
    "lon": "114.654101",
    "lat": "33.623740",
    "province_id": 16,
    "city_id": 168,
    "type": 2
  },
  {
    "city_code": "411700",
    "city_name": "驻马店市",
    "name_en": "Zhumadian Shi",
    "letter": "Z",
    "province_code": "410000",
    "province_name": "河南省",
    "lon": "114.049153",
    "lat": "32.983158",
    "province_id": 16,
    "city_id": 169,
    "type": 2
  },
  {
    "city_code": "419001",
    "city_name": "济源市",
    "name_en": "Jiyuan Shi",
    "letter": "J",
    "province_code": "410000",
    "province_name": "河南省",
    "lon": "112.581741",
    "lat": "35.084568",
    "province_id": 16,
    "city_id": 170,
    "type": 3
  },
  {
    "city_code": "420100",
    "city_name": "武汉市",
    "name_en": "Wuhan Shi",
    "letter": "W",
    "province_code": "420000",
    "province_name": "湖北省",
    "lon": "114.316200",
    "lat": "30.581084",
    "province_id": 17,
    "city_id": 171,
    "type": 2
  },
  {
    "city_code": "420200",
    "city_name": "黄石市",
    "name_en": "Huangshi Shi",
    "letter": "H",
    "province_code": "420000",
    "province_name": "湖北省",
    "lon": "115.050683",
    "lat": "30.216127",
    "province_id": 17,
    "city_id": 172,
    "type": 2
  },
  {
    "city_code": "420300",
    "city_name": "十堰市",
    "name_en": "Shiyan Shi",
    "letter": "S",
    "province_code": "420000",
    "province_name": "湖北省",
    "lon": "110.801228",
    "lat": "32.636994",
    "province_id": 17,
    "city_id": 173,
    "type": 2
  },
  {
    "city_code": "420500",
    "city_name": "宜昌市",
    "name_en": "Yichang Shi",
    "letter": "Y",
    "province_code": "420000",
    "province_name": "湖北省",
    "lon": "111.310981",
    "lat": "30.732757",
    "province_id": 17,
    "city_id": 174,
    "type": 2
  },
  {
    "city_code": "420600",
    "city_name": "襄阳市",
    "name_en": "Xiangfan Shi",
    "letter": "X",
    "province_code": "420000",
    "province_name": "湖北省",
    "lon": "112.250092",
    "lat": "32.229168",
    "province_id": 17,
    "city_id": 175,
    "type": 2
  },
  {
    "city_code": "420700",
    "city_name": "鄂州市",
    "name_en": "Ezhou Shi",
    "letter": "E",
    "province_code": "420000",
    "province_name": "湖北省",
    "lon": "114.895594",
    "lat": "30.384439",
    "province_id": 17,
    "city_id": 176,
    "type": 2
  },
  {
    "city_code": "420800",
    "city_name": "荆门市",
    "name_en": "Jingmen Shi",
    "letter": "J",
    "province_code": "420000",
    "province_name": "湖北省",
    "lon": "112.217330",
    "lat": "31.042611",
    "province_id": 17,
    "city_id": 177,
    "type": 2
  },
  {
    "city_code": "420900",
    "city_name": "孝感市",
    "name_en": "Xiaogan Shi",
    "letter": "X",
    "province_code": "420000",
    "province_name": "湖北省",
    "lon": "113.935734",
    "lat": "30.927954",
    "province_id": 17,
    "city_id": 178,
    "type": 2
  },
  {
    "city_code": "421000",
    "city_name": "荆州市",
    "name_en": "Jingzhou Shi",
    "letter": "J",
    "province_code": "420000",
    "province_name": "湖北省",
    "lon": "112.241865",
    "lat": "30.332590",
    "province_id": 17,
    "city_id": 179,
    "type": 2
  },
  {
    "city_code": "421100",
    "city_name": "黄冈市",
    "name_en": "Huanggang Shi",
    "letter": "H",
    "province_code": "420000",
    "province_name": "湖北省",
    "lon": "114.906618",
    "lat": "30.446108",
    "province_id": 17,
    "city_id": 180,
    "type": 2
  },
  {
    "city_code": "421200",
    "city_name": "咸宁市",
    "name_en": "Xianning Xian",
    "letter": "X",
    "province_code": "420000",
    "province_name": "湖北省",
    "lon": "114.300060",
    "lat": "29.880656",
    "province_id": 17,
    "city_id": 181,
    "type": 2
  },
  {
    "city_code": "421300",
    "city_name": "随州市",
    "name_en": "Suizhou Shi",
    "letter": "S",
    "province_code": "420000",
    "province_name": "湖北省",
    "lon": "113.379358",
    "lat": "31.717857",
    "province_id": 17,
    "city_id": 182,
    "type": 2
  },
  {
    "city_code": "422800",
    "city_name": "恩施土家族苗族自治州",
    "name_en": "Enshi Tujiazu Miaozu Zizhizhou",
    "letter": "E",
    "province_code": "420000",
    "province_name": "湖北省",
    "lon": "109.491923",
    "lat": "30.285888",
    "province_id": 17,
    "city_id": 183,
    "type": 2
  },
  {
    "city_code": "429004",
    "city_name": "仙桃市",
    "name_en": "Xiantao Shi",
    "letter": "X",
    "province_code": "420000",
    "province_name": "湖北省",
    "lon": "113.453063",
    "lat": "30.368728",
    "province_id": 17,
    "city_id": 184,
    "type": 3
  },
  {
    "city_code": "429005",
    "city_name": "潜江市",
    "name_en": "Qianjiang Shi",
    "letter": "Q",
    "province_code": "420000",
    "province_name": "湖北省",
    "lon": "112.892417",
    "lat": "30.425437",
    "province_id": 17,
    "city_id": 185,
    "type": 3
  },
  {
    "city_code": "429006",
    "city_name": "天门市",
    "name_en": "Tianmen Shi",
    "letter": "T",
    "province_code": "420000",
    "province_name": "湖北省",
    "lon": "113.164329",
    "lat": "30.651499",
    "province_id": 17,
    "city_id": 186,
    "type": 3
  },
  {
    "city_code": "429021",
    "city_name": "神农架林区",
    "name_en": "Shenlongjia Linqu",
    "letter": "S",
    "province_code": "420000",
    "province_name": "湖北省",
    "lon": "110.811710",
    "lat": "31.657180",
    "province_id": 17,
    "city_id": 187,
    "type": 3
  },
  {
    "city_code": "430100",
    "city_name": "长沙市",
    "name_en": "Changsha Shi",
    "letter": "C",
    "province_code": "430000",
    "province_name": "湖南省",
    "lon": "112.979352",
    "lat": "28.213478",
    "province_id": 18,
    "city_id": 188,
    "type": 2
  },
  {
    "city_code": "430200",
    "city_name": "株洲市",
    "name_en": "Zhuzhou Shi",
    "letter": "Z",
    "province_code": "430000",
    "province_name": "湖南省",
    "lon": "113.131695",
    "lat": "27.827432",
    "province_id": 18,
    "city_id": 189,
    "type": 2
  },
  {
    "city_code": "430300",
    "city_name": "湘潭市",
    "name_en": "Xiangtan Shi",
    "letter": "X",
    "province_code": "430000",
    "province_name": "湖南省",
    "lon": "112.935555",
    "lat": "27.835095",
    "province_id": 18,
    "city_id": 190,
    "type": 2
  },
  {
    "city_code": "430400",
    "city_name": "衡阳市",
    "name_en": "Hengyang Shi",
    "letter": "H",
    "province_code": "430000",
    "province_name": "湖南省",
    "lon": "112.583818",
    "lat": "26.898164",
    "province_id": 18,
    "city_id": 191,
    "type": 2
  },
  {
    "city_code": "430500",
    "city_name": "邵阳市",
    "name_en": "Shaoyang Shi",
    "letter": "S",
    "province_code": "430000",
    "province_name": "湖南省",
    "lon": "111.461525",
    "lat": "27.236811",
    "province_id": 18,
    "city_id": 192,
    "type": 2
  },
  {
    "city_code": "430600",
    "city_name": "岳阳市",
    "name_en": "Yueyang Shi",
    "letter": "Y",
    "province_code": "430000",
    "province_name": "湖南省",
    "lon": "113.146195",
    "lat": "29.378007",
    "province_id": 18,
    "city_id": 193,
    "type": 2
  },
  {
    "city_code": "430700",
    "city_name": "常德市",
    "name_en": "Changde Shi",
    "letter": "C",
    "province_code": "430000",
    "province_name": "湖南省",
    "lon": "111.653718",
    "lat": "29.012148",
    "province_id": 18,
    "city_id": 194,
    "type": 2
  },
  {
    "city_code": "430800",
    "city_name": "张家界市",
    "name_en": "Zhangjiajie Shi",
    "letter": "Z",
    "province_code": "430000",
    "province_name": "湖南省",
    "lon": "110.481620",
    "lat": "29.124889",
    "province_id": 18,
    "city_id": 195,
    "type": 2
  },
  {
    "city_code": "430900",
    "city_name": "益阳市",
    "name_en": "Yiyang Shi",
    "letter": "Y",
    "province_code": "430000",
    "province_name": "湖南省",
    "lon": "112.366546",
    "lat": "28.588087",
    "province_id": 18,
    "city_id": 196,
    "type": 2
  },
  {
    "city_code": "431000",
    "city_name": "郴州市",
    "name_en": "Chenzhou Shi",
    "letter": "C",
    "province_code": "430000",
    "province_name": "湖南省",
    "lon": "113.037704",
    "lat": "25.782263",
    "province_id": 18,
    "city_id": 197,
    "type": 2
  },
  {
    "city_code": "431100",
    "city_name": "永州市",
    "name_en": "Yongzhou Shi",
    "letter": "Y",
    "province_code": "430000",
    "province_name": "湖南省",
    "lon": "111.614647",
    "lat": "26.435971",
    "province_id": 18,
    "city_id": 198,
    "type": 2
  },
  {
    "city_code": "431200",
    "city_name": "怀化市",
    "name_en": "Huaihua Shi",
    "letter": "H",
    "province_code": "430000",
    "province_name": "湖南省",
    "lon": "109.986958",
    "lat": "27.557482",
    "province_id": 18,
    "city_id": 199,
    "type": 2
  },
  {
    "city_code": "431300",
    "city_name": "娄底市",
    "name_en": "Loudi Shi",
    "letter": "L",
    "province_code": "430000",
    "province_name": "湖南省",
    "lon": "111.996396",
    "lat": "27.741073",
    "province_id": 18,
    "city_id": 200,
    "type": 2
  },
  {
    "city_code": "433100",
    "city_name": "湘西土家族苗族自治州",
    "name_en": "Xiangxi Tujiazu Miaozu Zizhizhou ",
    "letter": "X",
    "province_code": "430000",
    "province_name": "湖南省",
    "lon": "109.745745",
    "lat": "28.317950",
    "province_id": 18,
    "city_id": 201,
    "type": 2
  },
  {
    "city_code": "440100",
    "city_name": "广州市",
    "name_en": "Guangzhou Shi",
    "letter": "G",
    "province_code": "440000",
    "province_name": "广东省",
    "lon": "113.307649",
    "lat": "23.120049",
    "province_id": 19,
    "city_id": 202,
    "type": 2
  },
  {
    "city_code": "440200",
    "city_name": "韶关市",
    "name_en": "Shaoguan Shi",
    "letter": "S",
    "province_code": "440000",
    "province_name": "广东省",
    "lon": "113.594461",
    "lat": "24.802960",
    "province_id": 19,
    "city_id": 203,
    "type": 2
  },
  {
    "city_code": "440300",
    "city_name": "深圳市",
    "name_en": "Shenzhen Shi",
    "letter": "S",
    "province_code": "440000",
    "province_name": "广东省",
    "lon": "114.025973",
    "lat": "22.546053",
    "province_id": 19,
    "city_id": 204,
    "type": 2
  },
  {
    "city_code": "440400",
    "city_name": "珠海市",
    "name_en": "Zhuhai Shi",
    "letter": "Z",
    "province_code": "440000",
    "province_name": "广东省",
    "lon": "113.562447",
    "lat": "22.256914",
    "province_id": 19,
    "city_id": 205,
    "type": 2
  },
  {
    "city_code": "440500",
    "city_name": "汕头市",
    "name_en": "Shantou Shi",
    "letter": "S",
    "province_code": "440000",
    "province_name": "广东省",
    "lon": "116.728650",
    "lat": "23.383908",
    "province_id": 19,
    "city_id": 206,
    "type": 2
  },
  {
    "city_code": "440600",
    "city_name": "佛山市",
    "name_en": "Foshan Shi",
    "letter": "F",
    "province_code": "440000",
    "province_name": "广东省",
    "lon": "113.134025",
    "lat": "23.035094",
    "province_id": 19,
    "city_id": 207,
    "type": 2
  },
  {
    "city_code": "440700",
    "city_name": "江门市",
    "name_en": "Jiangmen Shi",
    "letter": "J",
    "province_code": "440000",
    "province_name": "广东省",
    "lon": "113.078125",
    "lat": "22.575116",
    "province_id": 19,
    "city_id": 208,
    "type": 2
  },
  {
    "city_code": "440800",
    "city_name": "湛江市",
    "name_en": "Zhanjiang Shi",
    "letter": "Z",
    "province_code": "440000",
    "province_name": "广东省",
    "lon": "110.365067",
    "lat": "21.257463",
    "province_id": 19,
    "city_id": 209,
    "type": 2
  },
  {
    "city_code": "440900",
    "city_name": "茂名市",
    "name_en": "Maoming Shi",
    "letter": "M",
    "province_code": "440000",
    "province_name": "广东省",
    "lon": "110.931245",
    "lat": "21.668225",
    "province_id": 19,
    "city_id": 210,
    "type": 2
  },
  {
    "city_code": "441200",
    "city_name": "肇庆市",
    "name_en": "Zhaoqing Shi",
    "letter": "Z",
    "province_code": "440000",
    "province_name": "广东省",
    "lon": "112.479653",
    "lat": "23.078663",
    "province_id": 19,
    "city_id": 211,
    "type": 2
  },
  {
    "city_code": "441300",
    "city_name": "惠州市",
    "name_en": "Huizhou Shi",
    "letter": "H",
    "province_code": "440000",
    "province_name": "广东省",
    "lon": "114.410658",
    "lat": "23.113539",
    "province_id": 19,
    "city_id": 212,
    "type": 2
  },
  {
    "city_code": "441400",
    "city_name": "梅州市",
    "name_en": "Meizhou Shi",
    "letter": "M",
    "province_code": "440000",
    "province_name": "广东省",
    "lon": "116.126403",
    "lat": "24.304570",
    "province_id": 19,
    "city_id": 213,
    "type": 2
  },
  {
    "city_code": "441500",
    "city_name": "汕尾市",
    "name_en": "Shanwei Shi",
    "letter": "S",
    "province_code": "440000",
    "province_name": "广东省",
    "lon": "115.372924",
    "lat": "22.778730",
    "province_id": 19,
    "city_id": 214,
    "type": 2
  },
  {
    "city_code": "441600",
    "city_name": "河源市",
    "name_en": "Heyuan Shi",
    "letter": "H",
    "province_code": "440000",
    "province_name": "广东省",
    "lon": "114.713721",
    "lat": "23.757250",
    "province_id": 19,
    "city_id": 215,
    "type": 2
  },
  {
    "city_code": "441700",
    "city_name": "阳江市",
    "name_en": "Yangjiang Shi",
    "letter": "Y",
    "province_code": "440000",
    "province_name": "广东省",
    "lon": "111.977009",
    "lat": "21.871517",
    "province_id": 19,
    "city_id": 216,
    "type": 2
  },
  {
    "city_code": "441800",
    "city_name": "清远市",
    "name_en": "Qingyuan Shi",
    "letter": "Q",
    "province_code": "440000",
    "province_name": "广东省",
    "lon": "113.040773",
    "lat": "23.698468",
    "province_id": 19,
    "city_id": 217,
    "type": 2
  },
  {
    "city_code": "441900",
    "city_name": "东莞市",
    "name_en": "Dongguan Shi",
    "letter": "D",
    "province_code": "440000",
    "province_name": "广东省",
    "lon": "113.763433",
    "lat": "23.043023",
    "province_id": 19,
    "city_id": 218,
    "type": 3
  },
  {
    "city_code": "442000",
    "city_name": "中山市",
    "name_en": "Zhongshan Shi",
    "letter": "Z",
    "province_code": "440000",
    "province_name": "广东省",
    "lon": "113.422060",
    "lat": "22.545177",
    "province_id": 19,
    "city_id": 219,
    "type": 3
  },
  {
    "city_code": "445100",
    "city_name": "潮州市",
    "name_en": "Chaozhou Shi",
    "letter": "C",
    "province_code": "440000",
    "province_name": "广东省",
    "lon": "116.630075",
    "lat": "23.661811",
    "province_id": 19,
    "city_id": 220,
    "type": 2
  },
  {
    "city_code": "445200",
    "city_name": "揭阳市",
    "name_en": "Jieyang Shi",
    "letter": "J",
    "province_code": "440000",
    "province_name": "广东省",
    "lon": "116.379500",
    "lat": "23.547999",
    "province_id": 19,
    "city_id": 221,
    "type": 2
  },
  {
    "city_code": "445300",
    "city_name": "云浮市",
    "name_en": "Yunfu Shi",
    "letter": "Y",
    "province_code": "440000",
    "province_name": "广东省",
    "lon": "112.050945",
    "lat": "22.937975",
    "province_id": 19,
    "city_id": 222,
    "type": 2
  },
  {
    "city_code": "450100",
    "city_name": "南宁市",
    "name_en": "Nanning Shi",
    "letter": "N",
    "province_code": "450000",
    "province_name": "广西壮族自治区",
    "lon": "108.297233",
    "lat": "22.806492",
    "province_id": 20,
    "city_id": 223,
    "type": 2
  },
  {
    "city_code": "450200",
    "city_name": "柳州市",
    "name_en": "Liuzhou Shi",
    "letter": "L",
    "province_code": "450000",
    "province_name": "广西壮族自治区",
    "lon": "109.422401",
    "lat": "24.329053",
    "province_id": 20,
    "city_id": 224,
    "type": 2
  },
  {
    "city_code": "450300",
    "city_name": "桂林市",
    "name_en": "Guilin Shi",
    "letter": "G",
    "province_code": "450000",
    "province_name": "广西壮族自治区",
    "lon": "110.260920",
    "lat": "25.262901",
    "province_id": 20,
    "city_id": 225,
    "type": 2
  },
  {
    "city_code": "450400",
    "city_name": "梧州市",
    "name_en": "Wuzhou Shi",
    "letter": "W",
    "province_code": "450000",
    "province_name": "广西壮族自治区",
    "lon": "111.305471",
    "lat": "23.485394",
    "province_id": 20,
    "city_id": 226,
    "type": 2
  },
  {
    "city_code": "450500",
    "city_name": "北海市",
    "name_en": "Beihai Shi",
    "letter": "B",
    "province_code": "450000",
    "province_name": "广西壮族自治区",
    "lon": "109.122627",
    "lat": "21.472718",
    "province_id": 20,
    "city_id": 227,
    "type": 2
  },
  {
    "city_code": "450600",
    "city_name": "防城港市",
    "name_en": "Fangchenggang Shi",
    "letter": "F",
    "province_code": "450000",
    "province_name": "广西壮族自治区",
    "lon": "108.351791",
    "lat": "21.617398",
    "province_id": 20,
    "city_id": 228,
    "type": 2
  },
  {
    "city_code": "450700",
    "city_name": "钦州市",
    "name_en": "Qinzhou Shi",
    "letter": "Q",
    "province_code": "450000",
    "province_name": "广西壮族自治区",
    "lon": "108.638798",
    "lat": "21.973350",
    "province_id": 20,
    "city_id": 229,
    "type": 2
  },
  {
    "city_code": "450800",
    "city_name": "贵港市",
    "name_en": "Guigang Shi",
    "letter": "G",
    "province_code": "450000",
    "province_name": "广西壮族自治区",
    "lon": "109.613707",
    "lat": "23.103373",
    "province_id": 20,
    "city_id": 230,
    "type": 2
  },
  {
    "city_code": "450900",
    "city_name": "玉林市",
    "name_en": "Yulin Shi",
    "letter": "Y",
    "province_code": "450000",
    "province_name": "广西壮族自治区",
    "lon": "110.151676",
    "lat": "22.643973",
    "province_id": 20,
    "city_id": 231,
    "type": 2
  },
  {
    "city_code": "451000",
    "city_name": "百色市",
    "name_en": "Baise Shi",
    "letter": "B",
    "province_code": "450000",
    "province_name": "广西壮族自治区",
    "lon": "106.631821",
    "lat": "23.901512",
    "province_id": 20,
    "city_id": 232,
    "type": 2
  },
  {
    "city_code": "451100",
    "city_name": "贺州市",
    "name_en": "Hezhou Shi",
    "letter": "H",
    "province_code": "450000",
    "province_name": "广西壮族自治区",
    "lon": "111.552594",
    "lat": "24.411053",
    "province_id": 20,
    "city_id": 233,
    "type": 2
  },
  {
    "city_code": "451200",
    "city_name": "河池市",
    "name_en": "Hechi Shi",
    "letter": "H",
    "province_code": "450000",
    "province_name": "广西壮族自治区",
    "lon": "108.069947",
    "lat": "24.699520",
    "province_id": 20,
    "city_id": 234,
    "type": 2
  },
  {
    "city_code": "451300",
    "city_name": "来宾市",
    "name_en": "Laibin Shi",
    "letter": "L",
    "province_code": "450000",
    "province_name": "广西壮族自治区",
    "lon": "109.231816",
    "lat": "23.741165",
    "province_id": 20,
    "city_id": 235,
    "type": 2
  },
  {
    "city_code": "451400",
    "city_name": "崇左市",
    "name_en": "Chongzuo Shi",
    "letter": "C",
    "province_code": "450000",
    "province_name": "广西壮族自治区",
    "lon": "107.357322",
    "lat": "22.415455",
    "province_id": 20,
    "city_id": 236,
    "type": 2
  },
  {
    "city_code": "460100",
    "city_name": "海口市",
    "name_en": "Haikou Shi",
    "letter": "H",
    "province_code": "460000",
    "province_name": "海南省",
    "lon": "110.330801",
    "lat": "20.022071",
    "province_id": 21,
    "city_id": 237,
    "type": 2
  },
  {
    "city_code": "460200",
    "city_name": "三亚市",
    "name_en": "Sanya Shi",
    "letter": "S",
    "province_code": "460000",
    "province_name": "海南省",
    "lon": "109.522771",
    "lat": "18.257775",
    "province_id": 21,
    "city_id": 238,
    "type": 2
  },
  {
    "city_code": "460300",
    "city_name": "三沙市",
    "name_en": "Sansha Shi",
    "letter": "S",
    "province_code": "460000",
    "province_name": "海南省",
    "lon": "109.562772",
    "lat": "18.240529",
    "province_id": 21,
    "city_id": 239,
    "type": 3
  },
  {
    "city_code": "460400",
    "city_name": "儋州市",
    "name_en": "Dansha Shi",
    "letter": "D",
    "province_code": "460000",
    "province_name": "海南省",
    "lon": "109.582932",
    "lat": "19.518527",
    "province_id": 21,
    "city_id": 240,
    "type": 3
  },
  {
    "city_code": "469001",
    "city_name": "五指山市",
    "name_en": "Wuzhishan Shi",
    "letter": "W",
    "province_code": "460000",
    "province_name": "海南省",
    "lon": "109.519761",
    "lat": "18.784270",
    "province_id": 21,
    "city_id": 241,
    "type": 3
  },
  {
    "city_code": "469002",
    "city_name": "琼海市",
    "name_en": "Qionghai Shi",
    "letter": "Q",
    "province_code": "460000",
    "province_name": "海南省",
    "lon": "110.474198",
    "lat": "19.258150",
    "province_id": 21,
    "city_id": 242,
    "type": 3
  },
  {
    "city_code": "469005",
    "city_name": "文昌市",
    "name_en": "Wencahng Shi",
    "letter": "W",
    "province_code": "460000",
    "province_name": "海南省",
    "lon": "110.801041",
    "lat": "19.550883",
    "province_id": 21,
    "city_id": 243,
    "type": 3
  },
  {
    "city_code": "469006",
    "city_name": "万宁市",
    "name_en": "Wanning Shi",
    "letter": "W",
    "province_code": "460000",
    "province_name": "海南省",
    "lon": "110.389054",
    "lat": "18.806371",
    "province_id": 21,
    "city_id": 244,
    "type": 3
  },
  {
    "city_code": "469007",
    "city_name": "东方市",
    "name_en": "Dongfang Shi",
    "letter": "D",
    "province_code": "460000",
    "province_name": "海南省",
    "lon": "108.691666",
    "lat": "19.099907",
    "province_id": 21,
    "city_id": 245,
    "type": 3
  },
  {
    "city_code": "469021",
    "city_name": "定安县",
    "name_en": "Anding Xian",
    "letter": "A",
    "province_code": "460000",
    "province_name": "海南省",
    "lon": "110.361588",
    "lat": "19.682829",
    "province_id": 21,
    "city_id": 246,
    "type": 3
  },
  {
    "city_code": "469022",
    "city_name": "屯昌县",
    "name_en": "Tunchang Xian",
    "letter": "T",
    "province_code": "460000",
    "province_name": "海南省",
    "lon": "110.100663",
    "lat": "19.348876",
    "province_id": 21,
    "city_id": 247,
    "type": 3
  },
  {
    "city_code": "469023",
    "city_name": "澄迈县",
    "name_en": "Chengmai Xian",
    "letter": "C",
    "province_code": "460000",
    "province_name": "海南省",
    "lon": "110.012772",
    "lat": "19.739713",
    "province_id": 21,
    "city_id": 248,
    "type": 3
  },
  {
    "city_code": "469024",
    "city_name": "临高县",
    "name_en": "Lingao Xian",
    "letter": "L",
    "province_code": "460000",
    "province_name": "海南省",
    "lon": "109.688676",
    "lat": "19.897331",
    "province_id": 21,
    "city_id": 249,
    "type": 3
  },
  {
    "city_code": "469025",
    "city_name": "白沙黎族自治县",
    "name_en": "Baisha lizu ZiZhiXian",
    "letter": "B",
    "province_code": "460000",
    "province_name": "海南省",
    "lon": "109.422257",
    "lat": "19.232219",
    "province_id": 21,
    "city_id": 250,
    "type": 3
  },
  {
    "city_code": "469026",
    "city_name": "昌江黎族自治县",
    "name_en": "Changjiang lizu ZiZhiXian",
    "letter": "C",
    "province_code": "460000",
    "province_name": "海南省",
    "lon": "109.040482",
    "lat": "19.291854",
    "province_id": 21,
    "city_id": 251,
    "type": 3
  },
  {
    "city_code": "469027",
    "city_name": "乐东黎族自治县",
    "name_en": "Ledong lizu ZiZhiXian",
    "letter": "L",
    "province_code": "460000",
    "province_name": "海南省",
    "lon": "109.164078",
    "lat": "18.754364",
    "province_id": 21,
    "city_id": 252,
    "type": 3
  },
  {
    "city_code": "469028",
    "city_name": "陵水黎族自治县",
    "name_en": "Lingshui lizu ZiZhiXian",
    "letter": "L",
    "province_code": "460000",
    "province_name": "海南省",
    "lon": "110.042985",
    "lat": "18.509716",
    "province_id": 21,
    "city_id": 253,
    "type": 3
  },
  {
    "city_code": "469029",
    "city_name": "保亭黎族苗族自治县",
    "name_en": "Baoting lizuMiaozu ZiZhiXian",
    "letter": "B",
    "province_code": "460000",
    "province_name": "海南省",
    "lon": "109.699662",
    "lat": "18.632084",
    "province_id": 21,
    "city_id": 254,
    "type": 3
  },
  {
    "city_code": "469030",
    "city_name": "琼中黎族苗族自治县",
    "name_en": "Qiongzhong lizuMiaozu ZiZhiXian",
    "letter": "Q",
    "province_code": "460000",
    "province_name": "海南省",
    "lon": "109.845231",
    "lat": "19.055780",
    "province_id": 21,
    "city_id": 255,
    "type": 3
  },
  {
    "city_code": "500100",
    "city_name": "重庆市",
    "name_en": "Chongqing",
    "letter": "C",
    "province_code": "500000",
    "province_name": "重庆市",
    "lon": "106.530635",
    "lat": "29.544606",
    "province_id": 22,
    "city_id": 256,
    "type": 2
  },
  {
    "city_code": "510100",
    "city_name": "成都市",
    "name_en": "Chengdu Shi",
    "letter": "C",
    "province_code": "510000",
    "province_name": "四川省",
    "lon": "104.067923",
    "lat": "30.679942",
    "province_id": 23,
    "city_id": 257,
    "type": 2
  },
  {
    "city_code": "510300",
    "city_name": "自贡市",
    "name_en": "Zigong Shi",
    "letter": "Z",
    "province_code": "510000",
    "province_name": "四川省",
    "lon": "104.776071",
    "lat": "29.359156",
    "province_id": 23,
    "city_id": 258,
    "type": 2
  },
  {
    "city_code": "510400",
    "city_name": "攀枝花市",
    "name_en": "Panzhihua Shi",
    "letter": "P",
    "province_code": "510000",
    "province_name": "四川省",
    "lon": "101.722423",
    "lat": "26.587571",
    "province_id": 23,
    "city_id": 259,
    "type": 2
  },
  {
    "city_code": "510500",
    "city_name": "泸州市",
    "name_en": "Luzhou Shi",
    "letter": "L",
    "province_code": "510000",
    "province_name": "四川省",
    "lon": "105.443970",
    "lat": "28.895929",
    "province_id": 23,
    "city_id": 260,
    "type": 2
  },
  {
    "city_code": "510600",
    "city_name": "德阳市",
    "name_en": "Deyang Shi",
    "letter": "D",
    "province_code": "510000",
    "province_name": "四川省",
    "lon": "104.402397",
    "lat": "31.131139",
    "province_id": 23,
    "city_id": 261,
    "type": 2
  },
  {
    "city_code": "510700",
    "city_name": "绵阳市",
    "name_en": "Mianyang Shi",
    "letter": "M",
    "province_code": "510000",
    "province_name": "四川省",
    "lon": "104.705518",
    "lat": "31.504701",
    "province_id": 23,
    "city_id": 262,
    "type": 2
  },
  {
    "city_code": "510800",
    "city_name": "广元市",
    "name_en": "Guangyuan Shi",
    "letter": "G",
    "province_code": "510000",
    "province_name": "四川省",
    "lon": "105.819686",
    "lat": "32.441040",
    "province_id": 23,
    "city_id": 263,
    "type": 2
  },
  {
    "city_code": "510900",
    "city_name": "遂宁市",
    "name_en": "Suining Shi",
    "letter": "S",
    "province_code": "510000",
    "province_name": "四川省",
    "lon": "105.564887",
    "lat": "30.557491",
    "province_id": 23,
    "city_id": 264,
    "type": 2
  },
  {
    "city_code": "511000",
    "city_name": "内江市",
    "name_en": "Neijiang Shi",
    "letter": "N",
    "province_code": "510000",
    "province_name": "四川省",
    "lon": "105.073055",
    "lat": "29.599461",
    "province_id": 23,
    "city_id": 265,
    "type": 2
  },
  {
    "city_code": "511100",
    "city_name": "乐山市",
    "name_en": "Leshan Shi",
    "letter": "L",
    "province_code": "510000",
    "province_name": "四川省",
    "lon": "103.760824",
    "lat": "29.600957",
    "province_id": 23,
    "city_id": 266,
    "type": 2
  },
  {
    "city_code": "511300",
    "city_name": "南充市",
    "name_en": "Nanchong Shi",
    "letter": "N",
    "province_code": "510000",
    "province_name": "四川省",
    "lon": "106.105553",
    "lat": "30.800965",
    "province_id": 23,
    "city_id": 267,
    "type": 2
  },
  {
    "city_code": "511400",
    "city_name": "眉山市",
    "name_en": "Meishan Shi",
    "letter": "M",
    "province_code": "510000",
    "province_name": "四川省",
    "lon": "103.841429",
    "lat": "30.061115",
    "province_id": 23,
    "city_id": 268,
    "type": 2
  },
  {
    "city_code": "511500",
    "city_name": "宜宾市",
    "name_en": "Yibin Shi",
    "letter": "Y",
    "province_code": "510000",
    "province_name": "四川省",
    "lon": "104.633019",
    "lat": "28.769674",
    "province_id": 23,
    "city_id": 269,
    "type": 2
  },
  {
    "city_code": "511600",
    "city_name": "广安市",
    "name_en": "Guang,an Shi",
    "letter": "G",
    "province_code": "510000",
    "province_name": "四川省",
    "lon": "106.635720",
    "lat": "30.463983",
    "province_id": 23,
    "city_id": 270,
    "type": 2
  },
  {
    "city_code": "511700",
    "city_name": "达州市",
    "name_en": "Dazhou Shi",
    "letter": "D",
    "province_code": "510000",
    "province_name": "四川省",
    "lon": "107.494973",
    "lat": "31.214198",
    "province_id": 23,
    "city_id": 271,
    "type": 2
  },
  {
    "city_code": "511800",
    "city_name": "雅安市",
    "name_en": "Ya,an Shi",
    "letter": "Y",
    "province_code": "510000",
    "province_name": "四川省",
    "lon": "103.009356",
    "lat": "29.999716",
    "province_id": 23,
    "city_id": 272,
    "type": 2
  },
  {
    "city_code": "511900",
    "city_name": "巴中市",
    "name_en": "Bazhong Shi",
    "letter": "B",
    "province_code": "510000",
    "province_name": "四川省",
    "lon": "106.757915",
    "lat": "31.869189",
    "province_id": 23,
    "city_id": 273,
    "type": 2
  },
  {
    "city_code": "512000",
    "city_name": "资阳市",
    "name_en": "Ziyang Shi",
    "letter": "Z",
    "province_code": "510000",
    "province_name": "四川省",
    "lon": "104.635930",
    "lat": "30.132191",
    "province_id": 23,
    "city_id": 274,
    "type": 2
  },
  {
    "city_code": "513200",
    "city_name": "阿坝藏族羌族自治州",
    "name_en": "Aba(Ngawa) Zangzu Qiangzu Zizhizhou",
    "letter": "A",
    "province_code": "510000",
    "province_name": "四川省",
    "lon": "102.228564",
    "lat": "31.905762",
    "province_id": 23,
    "city_id": 275,
    "type": 2
  },
  {
    "city_code": "513300",
    "city_name": "甘孜藏族自治州",
    "name_en": "Garze Zangzu Zizhizhou",
    "letter": "G",
    "province_code": "510000",
    "province_name": "四川省",
    "lon": "101.969232",
    "lat": "30.055144",
    "province_id": 23,
    "city_id": 276,
    "type": 2
  },
  {
    "city_code": "513400",
    "city_name": "凉山彝族自治州",
    "name_en": "Liangshan Yizu Zizhizhou",
    "letter": "L",
    "province_code": "510000",
    "province_name": "四川省",
    "lon": "102.259590",
    "lat": "27.892392",
    "province_id": 23,
    "city_id": 277,
    "type": 2
  },
  {
    "city_code": "520100",
    "city_name": "贵阳市",
    "name_en": "Guiyang Shi",
    "letter": "G",
    "province_code": "520000",
    "province_name": "贵州省",
    "lon": "106.709177",
    "lat": "26.629906",
    "province_id": 24,
    "city_id": 278,
    "type": 2
  },
  {
    "city_code": "520200",
    "city_name": "六盘水市",
    "name_en": "Liupanshui Shi",
    "letter": "L",
    "province_code": "520000",
    "province_name": "贵州省",
    "lon": "104.852086",
    "lat": "26.591866",
    "province_id": 24,
    "city_id": 279,
    "type": 2
  },
  {
    "city_code": "520300",
    "city_name": "遵义市",
    "name_en": "Zunyi Shi",
    "letter": "Z",
    "province_code": "520000",
    "province_name": "贵州省",
    "lon": "106.931260",
    "lat": "27.699961",
    "province_id": 24,
    "city_id": 280,
    "type": 2
  },
  {
    "city_code": "520400",
    "city_name": "安顺市",
    "name_en": "Anshun Xian",
    "letter": "A",
    "province_code": "520000",
    "province_name": "贵州省",
    "lon": "105.928269",
    "lat": "26.228594",
    "province_id": 24,
    "city_id": 281,
    "type": 2
  },
  {
    "city_code": "522400",
    "city_name": "毕节市",
    "name_en": "Bijie Shi",
    "letter": "B",
    "province_code": "520000",
    "province_name": "贵州省",
    "lon": "105.333323",
    "lat": "27.408562",
    "province_id": 24,
    "city_id": 282,
    "type": 2
  },
  {
    "city_code": "522200",
    "city_name": "铜仁市",
    "name_en": "Tongren Shi",
    "letter": "T",
    "province_code": "520000",
    "province_name": "贵州省",
    "lon": "109.168558",
    "lat": "27.674902",
    "province_id": 24,
    "city_id": 283,
    "type": 2
  },
  {
    "city_code": "522300",
    "city_name": "黔西南布依族苗族自治州",
    "name_en": "Qianxinan Buyeizu Zizhizhou",
    "letter": "Q",
    "province_code": "520000",
    "province_name": "贵州省",
    "lon": "104.900557",
    "lat": "25.095148",
    "province_id": 24,
    "city_id": 284,
    "type": 2
  },
  {
    "city_code": "522600",
    "city_name": "黔东南苗族侗族自治州",
    "name_en": "Qiandongnan Miaozu Dongzu Zizhizhou",
    "letter": "Q",
    "province_code": "520000",
    "province_name": "贵州省",
    "lon": "107.985352",
    "lat": "26.583991",
    "province_id": 24,
    "city_id": 285,
    "type": 2
  },
  {
    "city_code": "522700",
    "city_name": "黔南布依族苗族自治州",
    "name_en": "Qiannan Buyeizu Miaozu Zizhizhou",
    "letter": "Q",
    "province_code": "520000",
    "province_name": "贵州省",
    "lon": "107.523205",
    "lat": "26.264535",
    "province_id": 24,
    "city_id": 286,
    "type": 2
  },
  {
    "city_code": "530100",
    "city_name": "昆明市",
    "name_en": "Kunming Shi",
    "letter": "K",
    "province_code": "530000",
    "province_name": "云南省",
    "lon": "102.714601",
    "lat": "25.049153",
    "province_id": 25,
    "city_id": 287,
    "type": 2
  },
  {
    "city_code": "530300",
    "city_name": "曲靖市",
    "name_en": "Qujing Shi",
    "letter": "Q",
    "province_code": "530000",
    "province_name": "云南省",
    "lon": "103.782538",
    "lat": "25.520758",
    "province_id": 25,
    "city_id": 288,
    "type": 2
  },
  {
    "city_code": "530400",
    "city_name": "玉溪市",
    "name_en": "Yuxi Shi",
    "letter": "Y",
    "province_code": "530000",
    "province_name": "云南省",
    "lon": "102.545067",
    "lat": "24.370447",
    "province_id": 25,
    "city_id": 289,
    "type": 2
  },
  {
    "city_code": "530500",
    "city_name": "保山市",
    "name_en": "Baoshan Shi",
    "letter": "B",
    "province_code": "530000",
    "province_name": "云南省",
    "lon": "99.177995",
    "lat": "25.120489",
    "province_id": 25,
    "city_id": 290,
    "type": 2
  },
  {
    "city_code": "530600",
    "city_name": "昭通市",
    "name_en": "Zhaotong Shi",
    "letter": "Z",
    "province_code": "530000",
    "province_name": "云南省",
    "lon": "103.725020",
    "lat": "27.340632",
    "province_id": 25,
    "city_id": 291,
    "type": 2
  },
  {
    "city_code": "530700",
    "city_name": "丽江市",
    "name_en": "Lijiang Shi",
    "letter": "L",
    "province_code": "530000",
    "province_name": "云南省",
    "lon": "100.229628",
    "lat": "26.875351",
    "province_id": 25,
    "city_id": 292,
    "type": 2
  },
  {
    "city_code": "530800",
    "city_name": "普洱市",
    "name_en": "Puer Shi",
    "letter": "P",
    "province_code": "530000",
    "province_name": "云南省",
    "lon": "100.980057",
    "lat": "22.788777",
    "province_id": 25,
    "city_id": 293,
    "type": 2
  },
  {
    "city_code": "530900",
    "city_name": "临沧市",
    "name_en": "Lincang Shi",
    "letter": "L",
    "province_code": "530000",
    "province_name": "云南省",
    "lon": "100.092612",
    "lat": "23.887806",
    "province_id": 25,
    "city_id": 294,
    "type": 2
  },
  {
    "city_code": "532300",
    "city_name": "楚雄彝族自治州",
    "name_en": "Chuxiong Yizu Zizhizhou",
    "letter": "C",
    "province_code": "530000",
    "province_name": "云南省",
    "lon": "101.529382",
    "lat": "25.066355",
    "province_id": 25,
    "city_id": 295,
    "type": 2
  },
  {
    "city_code": "532500",
    "city_name": "红河哈尼族彝族自治州",
    "name_en": "Honghe Hanizu Yizu Zizhizhou",
    "letter": "H",
    "province_code": "530000",
    "province_name": "云南省",
    "lon": "103.384064",
    "lat": "23.367717",
    "province_id": 25,
    "city_id": 296,
    "type": 2
  },
  {
    "city_code": "532600",
    "city_name": "文山壮族苗族自治州",
    "name_en": "Wenshan Zhuangzu Miaozu Zizhizhou",
    "letter": "W",
    "province_code": "530000",
    "province_name": "云南省",
    "lon": "104.246294",
    "lat": "23.374086",
    "province_id": 25,
    "city_id": 297,
    "type": 2
  },
  {
    "city_code": "532800",
    "city_name": "西双版纳傣族自治州",
    "name_en": "Xishuangbanna Daizu Zizhizhou",
    "letter": "X",
    "province_code": "530000",
    "province_name": "云南省",
    "lon": "100.803038",
    "lat": "22.009433",
    "province_id": 25,
    "city_id": 298,
    "type": 2
  },
  {
    "city_code": "532900",
    "city_name": "大理白族自治州",
    "name_en": "Dali Baizu Zizhizhou",
    "letter": "D",
    "province_code": "530000",
    "province_name": "云南省",
    "lon": "100.223674",
    "lat": "25.596899",
    "province_id": 25,
    "city_id": 299,
    "type": 2
  },
  {
    "city_code": "533100",
    "city_name": "德宏傣族景颇族自治州",
    "name_en": "Dehong Daizu Jingpozu Zizhizhou",
    "letter": "D",
    "province_code": "530000",
    "province_name": "云南省",
    "lon": "98.589434",
    "lat": "24.441239",
    "province_id": 25,
    "city_id": 300,
    "type": 2
  },
  {
    "city_code": "533300",
    "city_name": "怒江傈僳族自治州",
    "name_en": "Nujiang Lisuzu Zizhizhou",
    "letter": "N",
    "province_code": "530000",
    "province_name": "云南省",
    "lon": "98.859932",
    "lat": "25.860676",
    "province_id": 25,
    "city_id": 301,
    "type": 2
  },
  {
    "city_code": "533400",
    "city_name": "迪庆藏族自治州",
    "name_en": "Deqen Zangzu Zizhizhou",
    "letter": "D",
    "province_code": "530000",
    "province_name": "云南省",
    "lon": "99.713681",
    "lat": "27.831029",
    "province_id": 25,
    "city_id": 302,
    "type": 2
  },
  {
    "city_code": "540100",
    "city_name": "拉萨市",
    "name_en": "Lhasa Shi",
    "letter": "L",
    "province_code": "540000",
    "province_name": "西藏自治区",
    "lon": "91.111890",
    "lat": "29.662557",
    "province_id": 26,
    "city_id": 303,
    "type": 2
  },
  {
    "city_code": "540200",
    "city_name": "日喀则地区",
    "name_en": "Rigaze Diqu",
    "letter": "R",
    "province_code": "540000",
    "province_name": "西藏自治区",
    "lon": "88.855863",
    "lat": "29.214144",
    "province_id": 26,
    "city_id": 304,
    "type": 2
  },
  {
    "city_code": "540300",
    "city_name": "昌都地区",
    "name_en": "Changdu Diqu",
    "letter": "C",
    "province_code": "540000",
    "province_name": "西藏自治区",
    "lon": "97.185581",
    "lat": "31.140575",
    "province_id": 26,
    "city_id": 305,
    "type": 2
  },
  {
    "city_code": "540400",
    "city_name": "林芝地区",
    "name_en": "Nyingchi Diqu",
    "letter": "L",
    "province_code": "540000",
    "province_name": "西藏自治区",
    "lon": "94.349985",
    "lat": "29.666940",
    "province_id": 26,
    "city_id": 306,
    "type": 2
  },
  {
    "city_code": "540500",
    "city_name": "山南地区",
    "name_en": "Shannan Diqu",
    "letter": "S",
    "province_code": "540000",
    "province_name": "西藏自治区",
    "lon": "91.750643",
    "lat": "29.229026",
    "province_id": 26,
    "city_id": 307,
    "type": 2
  },
  {
    "city_code": "542400",
    "city_name": "那曲地区",
    "name_en": "Nagqu Diqu",
    "letter": "N",
    "province_code": "540000",
    "province_name": "西藏自治区",
    "lon": "92.067018",
    "lat": "31.480679",
    "province_id": 26,
    "city_id": 308,
    "type": 2
  },
  {
    "city_code": "542500",
    "city_name": "阿里地区",
    "name_en": "Ngari Diqu",
    "letter": "A",
    "province_code": "540000",
    "province_name": "西藏自治区",
    "lon": "81.107668",
    "lat": "30.404556",
    "province_id": 26,
    "city_id": 309,
    "type": 2
  },
  {
    "city_code": "610100",
    "city_name": "西安市",
    "name_en": "Xi,an Shi",
    "letter": "X",
    "province_code": "610000",
    "province_name": "陕西省",
    "lon": "108.953098",
    "lat": "34.277799",
    "province_id": 27,
    "city_id": 310,
    "type": 2
  },
  {
    "city_code": "610200",
    "city_name": "铜川市",
    "name_en": "Tongchuan Shi",
    "letter": "T",
    "province_code": "610000",
    "province_name": "陕西省",
    "lon": "108.968067",
    "lat": "34.908367",
    "province_id": 27,
    "city_id": 311,
    "type": 2
  },
  {
    "city_code": "610300",
    "city_name": "宝鸡市",
    "name_en": "Baoji Shi",
    "letter": "B",
    "province_code": "610000",
    "province_name": "陕西省",
    "lon": "107.170645",
    "lat": "34.364080",
    "province_id": 27,
    "city_id": 312,
    "type": 2
  },
  {
    "city_code": "610400",
    "city_name": "咸阳市",
    "name_en": "Xianyang Shi",
    "letter": "X",
    "province_code": "610000",
    "province_name": "陕西省",
    "lon": "108.707509",
    "lat": "34.345372",
    "province_id": 27,
    "city_id": 313,
    "type": 2
  },
  {
    "city_code": "610500",
    "city_name": "渭南市",
    "name_en": "Weinan Shi",
    "letter": "W",
    "province_code": "610000",
    "province_name": "陕西省",
    "lon": "109.483932",
    "lat": "34.502357",
    "province_id": 27,
    "city_id": 314,
    "type": 2
  },
  {
    "city_code": "610600",
    "city_name": "延安市",
    "name_en": "Yan,an Shi",
    "letter": "Y",
    "province_code": "610000",
    "province_name": "陕西省",
    "lon": "109.500509",
    "lat": "36.603320",
    "province_id": 27,
    "city_id": 315,
    "type": 2
  },
  {
    "city_code": "610700",
    "city_name": "汉中市",
    "name_en": "Hanzhong Shi",
    "letter": "H",
    "province_code": "610000",
    "province_name": "陕西省",
    "lon": "107.045477",
    "lat": "33.081568",
    "province_id": 27,
    "city_id": 316,
    "type": 2
  },
  {
    "city_code": "610800",
    "city_name": "榆林市",
    "name_en": "Yulin Shi",
    "letter": "Y",
    "province_code": "610000",
    "province_name": "陕西省",
    "lon": "109.745925",
    "lat": "38.279439",
    "province_id": 27,
    "city_id": 317,
    "type": 2
  },
  {
    "city_code": "610900",
    "city_name": "安康市",
    "name_en": "Ankang Shi",
    "letter": "A",
    "province_code": "610000",
    "province_name": "陕西省",
    "lon": "109.038044",
    "lat": "32.704370",
    "province_id": 27,
    "city_id": 318,
    "type": 2
  },
  {
    "city_code": "611000",
    "city_name": "商洛市",
    "name_en": "Shangluo Shi",
    "letter": "S",
    "province_code": "610000",
    "province_name": "陕西省",
    "lon": "109.934208",
    "lat": "33.873907",
    "province_id": 27,
    "city_id": 319,
    "type": 2
  },
  {
    "city_code": "620100",
    "city_name": "兰州市",
    "name_en": "Lanzhou Shi",
    "letter": "L",
    "province_code": "620000",
    "province_name": "甘肃省",
    "lon": "103.823305",
    "lat": "36.064225",
    "province_id": 28,
    "city_id": 320,
    "type": 2
  },
  {
    "city_code": "620200",
    "city_name": "嘉峪关市",
    "name_en": "Jiayuguan Shi",
    "letter": "J",
    "province_code": "620000",
    "province_name": "甘肃省",
    "lon": "98.2816345",
    "lat": "39.802397",
    "province_id": 28,
    "city_id": 321,
    "type": 3
  },
  {
    "city_code": "620300",
    "city_name": "金昌市",
    "name_en": "Jinchang Shi",
    "letter": "J",
    "province_code": "620000",
    "province_name": "甘肃省",
    "lon": "102.208126",
    "lat": "38.516071",
    "province_id": 28,
    "city_id": 322,
    "type": 2
  },
  {
    "city_code": "620400",
    "city_name": "白银市",
    "name_en": "Baiyin Shi",
    "letter": "B",
    "province_code": "620000",
    "province_name": "甘肃省",
    "lon": "104.171240",
    "lat": "36.546681",
    "province_id": 28,
    "city_id": 323,
    "type": 2
  },
  {
    "city_code": "620500",
    "city_name": "天水市",
    "name_en": "Tianshui Shi",
    "letter": "T",
    "province_code": "620000",
    "province_name": "甘肃省",
    "lon": "105.736931",
    "lat": "34.584319",
    "province_id": 28,
    "city_id": 324,
    "type": 2
  },
  {
    "city_code": "620600",
    "city_name": "武威市",
    "name_en": "Wuwei Shi",
    "letter": "W",
    "province_code": "620000",
    "province_name": "甘肃省",
    "lon": "102.640147",
    "lat": "37.933172",
    "province_id": 28,
    "city_id": 325,
    "type": 2
  },
  {
    "city_code": "620700",
    "city_name": "张掖市",
    "name_en": "Zhangye Shi",
    "letter": "Z",
    "province_code": "620000",
    "province_name": "甘肃省",
    "lon": "100.459891",
    "lat": "38.939320",
    "province_id": 28,
    "city_id": 326,
    "type": 2
  },
  {
    "city_code": "620800",
    "city_name": "平凉市",
    "name_en": "Pingliang Shi",
    "letter": "P",
    "province_code": "620000",
    "province_name": "甘肃省",
    "lon": "106.688911",
    "lat": "35.550110",
    "province_id": 28,
    "city_id": 327,
    "type": 2
  },
  {
    "city_code": "620900",
    "city_name": "酒泉市",
    "name_en": "Jiuquan Shi",
    "letter": "J",
    "province_code": "620000",
    "province_name": "甘肃省",
    "lon": "98.508414",
    "lat": "39.741473",
    "province_id": 28,
    "city_id": 328,
    "type": 2
  },
  {
    "city_code": "621000",
    "city_name": "庆阳市",
    "name_en": "Qingyang Shi",
    "letter": "Q",
    "province_code": "620000",
    "province_name": "甘肃省",
    "lon": "107.644227",
    "lat": "35.726800",
    "province_id": 28,
    "city_id": 329,
    "type": 2
  },
  {
    "city_code": "621100",
    "city_name": "定西市",
    "name_en": "Dingxi Shi",
    "letter": "D",
    "province_code": "620000",
    "province_name": "甘肃省",
    "lon": "104.626637",
    "lat": "35.586056",
    "province_id": 28,
    "city_id": 330,
    "type": 2
  },
  {
    "city_code": "621200",
    "city_name": "陇南市",
    "name_en": "Longnan Shi",
    "letter": "L",
    "province_code": "620000",
    "province_name": "甘肃省",
    "lon": "104.934573",
    "lat": "33.394479",
    "province_id": 28,
    "city_id": 331,
    "type": 2
  },
  {
    "city_code": "622900",
    "city_name": "临夏回族自治州",
    "name_en": "Linxia Huizu Zizhizhou ",
    "letter": "L",
    "province_code": "620000",
    "province_name": "甘肃省",
    "lon": "103.215249",
    "lat": "35.598514",
    "province_id": 28,
    "city_id": 332,
    "type": 2
  },
  {
    "city_code": "623000",
    "city_name": "甘南藏族自治州",
    "name_en": "Gannan Zangzu Zizhizhou",
    "letter": "G",
    "province_code": "620000",
    "province_name": "甘肃省",
    "lon": "102.917442",
    "lat": "34.992211",
    "province_id": 28,
    "city_id": 333,
    "type": 2
  },
  {
    "city_code": "630100",
    "city_name": "西宁市",
    "name_en": "Xining Shi",
    "letter": "X",
    "province_code": "630000",
    "province_name": "青海省",
    "lon": "101.767920",
    "lat": "36.640738",
    "province_id": 28,
    "city_id": 334,
    "type": 2
  },
  {
    "city_code": "630200",
    "city_name": "海东地区",
    "name_en": "Haidong Diqu",
    "letter": "H",
    "province_code": "630000",
    "province_name": "青海省",
    "lon": "102.085206",
    "lat": "36.517610",
    "province_id": 28,
    "city_id": 335,
    "type": 2
  },
  {
    "city_code": "632200",
    "city_name": "海北藏族自治州",
    "name_en": "Haibei Zangzu Zizhizhou",
    "letter": "H",
    "province_code": "630000",
    "province_name": "青海省",
    "lon": "100.879802",
    "lat": "36.960654",
    "province_id": 28,
    "city_id": 336,
    "type": 2
  },
  {
    "city_code": "632300",
    "city_name": "黄南藏族自治州",
    "name_en": "Huangnan Zangzu Zizhizhou",
    "letter": "H",
    "province_code": "630000",
    "province_name": "青海省",
    "lon": "102.007600",
    "lat": "35.522851",
    "province_id": 28,
    "city_id": 337,
    "type": 2
  },
  {
    "city_code": "632500",
    "city_name": "海南藏族自治州",
    "name_en": "Hainan Zangzu Zizhizhou",
    "letter": "H",
    "province_code": "630000",
    "province_name": "青海省",
    "lon": "100.624066",
    "lat": "36.284363",
    "province_id": 28,
    "city_id": 338,
    "type": 2
  },
  {
    "city_code": "632600",
    "city_name": "果洛藏族自治州",
    "name_en": "Golog Zangzu Zizhizhou",
    "letter": "G",
    "province_code": "630000",
    "province_name": "青海省",
    "lon": "100.223722",
    "lat": "34.480484",
    "province_id": 28,
    "city_id": 339,
    "type": 2
  },
  {
    "city_code": "632700",
    "city_name": "玉树藏族自治州",
    "name_en": "Yushu Zangzu Zizhizhou",
    "letter": "Y",
    "province_code": "630000",
    "province_name": "青海省",
    "lon": "97.013316",
    "lat": "33.006239",
    "province_id": 28,
    "city_id": 340,
    "type": 2
  },
  {
    "city_code": "632800",
    "city_name": "海西蒙古族藏族自治州",
    "name_en": "Haixi Mongolzu Zangzu Zizhizhou",
    "letter": "H",
    "province_code": "630000",
    "province_name": "青海省",
    "lon": "97.342625",
    "lat": "37.373799",
    "province_id": 29,
    "city_id": 341,
    "type": 2
  },
  {
    "city_code": "640100",
    "city_name": "银川市",
    "name_en": "Yinchuan Shi",
    "letter": "Y",
    "province_code": "640000",
    "province_name": "宁夏回族自治区",
    "lon": "106.206478",
    "lat": "38.502621",
    "province_id": 30,
    "city_id": 341,
    "type": 2
  },
  {
    "city_code": "640200",
    "city_name": "石嘴山市",
    "name_en": "Shizuishan Shi",
    "letter": "S",
    "province_code": "640000",
    "province_name": "宁夏回族自治区",
    "lon": "106.379337",
    "lat": "39.020223",
    "province_id": 30,
    "city_id": 342,
    "type": 2
  },
  {
    "city_code": "640300",
    "city_name": "吴忠市",
    "name_en": "Wuzhong Shi",
    "letter": "W",
    "province_code": "640000",
    "province_name": "宁夏回族自治区",
    "lon": "106.208254",
    "lat": "37.993561",
    "province_id": 30,
    "city_id": 343,
    "type": 2
  },
  {
    "city_code": "640400",
    "city_name": "固原市",
    "name_en": "Guyuan Shi",
    "letter": "G",
    "province_code": "640000",
    "province_name": "宁夏回族自治区",
    "lon": "106.285267",
    "lat": "36.021523",
    "province_id": 30,
    "city_id": 344,
    "type": 2
  },
  {
    "city_code": "640500",
    "city_name": "中卫市",
    "name_en": "Zhongwei Shi",
    "letter": "Z",
    "province_code": "640000",
    "province_name": "宁夏回族自治区",
    "lon": "105.196754",
    "lat": "37.521124",
    "province_id": 30,
    "city_id": 345,
    "type": 2
  },
  {
    "city_code": "650100",
    "city_name": "乌鲁木齐市",
    "name_en": "Urumqi Shi",
    "letter": "W",
    "province_code": "650000",
    "province_name": "新疆维吾尔自治区",
    "lon": "87.564987",
    "lat": "43.840380",
    "province_id": 31,
    "city_id": 346,
    "type": 2
  },
  {
    "city_code": "650200",
    "city_name": "克拉玛依市",
    "name_en": "Karamay Shi",
    "letter": "K",
    "province_code": "650000",
    "province_name": "新疆维吾尔自治区",
    "lon": "84.881180",
    "lat": "45.594331",
    "province_id": 31,
    "city_id": 347,
    "type": 2
  },
  {
    "city_code": "650400",
    "city_name": "吐鲁番地区",
    "name_en": "Turpan Diqu",
    "letter": "T",
    "province_code": "650000",
    "province_name": "新疆维吾尔自治区",
    "lon": "89.181594",
    "lat": "42.960470",
    "province_id": 31,
    "city_id": 348,
    "type": 2
  },
  {
    "city_code": "650500",
    "city_name": "哈密地区",
    "name_en": "Hami(kumul) Diqu",
    "letter": "H",
    "province_code": "650000",
    "province_name": "新疆维吾尔自治区",
    "lon": "93.528355",
    "lat": "42.858596",
    "province_id": 31,
    "city_id": 349,
    "type": 2
  },
  {
    "city_code": "652300",
    "city_name": "昌吉回族自治州",
    "name_en": "Changji Huizu Zizhizhou",
    "letter": "C",
    "province_code": "650000",
    "province_name": "新疆维吾尔自治区",
    "lon": "87.296038",
    "lat": "44.007057",
    "province_id": 31,
    "city_id": 350,
    "type": 2
  },
  {
    "city_code": "652700",
    "city_name": "博尔塔拉蒙古自治州",
    "name_en": "Bortala Monglo Zizhizhou",
    "letter": "B",
    "province_code": "650000",
    "province_name": "新疆维吾尔自治区",
    "lon": "82.052436",
    "lat": "44.913651",
    "province_id": 31,
    "city_id": 351,
    "type": 2
  },
  {
    "city_code": "652800",
    "city_name": "巴音郭楞蒙古自治州",
    "name_en": "bayinguolengmengguzizhizhou",
    "letter": "B",
    "province_code": "650000",
    "province_name": "新疆维吾尔自治区",
    "lon": "86.151572",
    "lat": "41.770229",
    "province_id": 31,
    "city_id": 352,
    "type": 2
  },
  {
    "city_code": "652900",
    "city_name": "阿克苏地区",
    "name_en": "Aksu Diqu",
    "letter": "A",
    "province_code": "650000",
    "province_name": "新疆维吾尔自治区",
    "lon": "80.269846",
    "lat": "41.171730",
    "province_id": 31,
    "city_id": 353,
    "type": 2
  },
  {
    "city_code": "653000",
    "city_name": "克孜勒苏柯尔克孜自治州",
    "name_en": "Kizilsu Kirgiz Zizhizhou",
    "letter": "K",
    "province_code": "650000",
    "province_name": "新疆维吾尔自治区",
    "lon": "76.137564",
    "lat": "39.750345",
    "province_id": 31,
    "city_id": 354,
    "type": 2
  },
  {
    "city_code": "653100",
    "city_name": "喀什地区",
    "name_en": "Kashi(Kaxgar) Diqu",
    "letter": "K",
    "province_code": "650000",
    "province_name": "新疆维吾尔自治区",
    "lon": "75.992973",
    "lat": "39.470627",
    "province_id": 31,
    "city_id": 355,
    "type": 2
  },
  {
    "city_code": "653200",
    "city_name": "和田地区",
    "name_en": "Hotan Diqu",
    "letter": "H",
    "province_code": "650000",
    "province_name": "新疆维吾尔自治区",
    "lon": "79.930238",
    "lat": "37.116774",
    "province_id": 31,
    "city_id": 356,
    "type": 2
  },
  {
    "city_code": "654000",
    "city_name": "伊犁哈萨克自治州",
    "name_en": "Yli Kazak Zizhizhou",
    "letter": "Y",
    "province_code": "650000",
    "province_name": "新疆维吾尔自治区",
    "lon": "81.297853",
    "lat": "43.922248",
    "province_id": 31,
    "city_id": 357,
    "type": 2
  },
  {
    "city_code": "654200",
    "city_name": "塔城地区",
    "name_en": "Tacheng(Qoqek) Diqu",
    "letter": "T",
    "province_code": "650000",
    "province_name": "新疆维吾尔自治区",
    "lon": "82.974880",
    "lat": "46.758683",
    "province_id": 31,
    "city_id": 358,
    "type": 2
  },
  {
    "city_code": "654300",
    "city_name": "阿勒泰地区",
    "name_en": "Altay Diqu",
    "letter": "A",
    "province_code": "650000",
    "province_name": "新疆维吾尔自治区",
    "lon": "88.137915",
    "lat": "47.839744",
    "province_id": 31,
    "city_id": 359,
    "type": 2
  },
  {
    "city_code": "659001",
    "city_name": "石河子市",
    "name_en": "Shihezi Shi",
    "letter": "S",
    "province_code": "650000",
    "province_name": "新疆维吾尔自治区",
    "lon": "86.041075",
    "lat": "44.305886",
    "province_id": 31,
    "city_id": 360,
    "type": 3
  },
  {
    "city_code": "659002",
    "city_name": "阿拉尔市",
    "name_en": "Alaer Shi",
    "letter": "A",
    "province_code": "650000",
    "province_name": "新疆维吾尔自治区",
    "lon": "81.294193",
    "lat": "40.544197",
    "province_id": 31,
    "city_id": 361,
    "type": 3
  },
  {
    "city_code": "659003",
    "city_name": "图木舒克市",
    "name_en": "Tumushuke Shi",
    "letter": "T",
    "province_code": "650000",
    "province_name": "新疆维吾尔自治区",
    "lon": "79.061222",
    "lat": "39.864554",
    "province_id": 31,
    "city_id": 362,
    "type": 3
  },
  {
    "city_code": "659004",
    "city_name": "五家渠市",
    "name_en": "Wujiaqu Shi",
    "letter": "W",
    "province_code": "650000",
    "province_name": "新疆维吾尔自治区",
    "lon": "87.535114",
    "lat": "44.171490",
    "province_id": 31,
    "city_id": 363,
    "type": 3
  },
  {
    "city_code": "659006",
    "city_name": "铁门关市",
    "name_en": "Tiemenguan Shi",
    "letter": "T",
    "province_code": "650000",
    "province_name": "新疆维吾尔自治区",
    "lon": "85.614796",
    "lat": "41.950411",
    "province_id": 31,
    "city_id": 364,
    "type": 3
  },
  {
    "city_code": "710000",
    "city_name": "台湾",
    "name_en": "Taiwan",
    "letter": "T",
    "province_code": "710000",
    "province_name": "台湾",
    "lon": "121.500000",
    "lat": "25.030000",
    "province_id": 32,
    "city_id": 365,
    "type": 3
  },
  {
    "city_code": "720000",
    "city_name": "香港",
    "name_en": "Hongkong",
    "letter": "H",
    "province_code": "720000",
    "province_name": "香港",
    "lon": "114.080000",
    "lat": "22.200000",
    "province_id": 33,
    "city_id": 366,
    "type": 3
  },
  {
    "city_code": "730000",
    "city_name": "澳门",
    "name_en": "Macau",
    "letter": "M",
    "province_code": "730000",
    "province_name": "澳门",
    "lon": "113.330000",
    "lat": "22.130000",
    "province_id": 34,
    "city_id": 367,
    "type": 3
  }
]